{
"type": "FeatureCollection",
"name": "Bujagali_Kawanda_220_Line_Position_New",
"crs": { "type": "name", "properties": { "name": "urn:ogc:def:crs:EPSG::32636" } },
"features": [
{ "type": "Feature", "properties": { "id": 1, "Tower Type": "Pylon" }, "geometry": { "type": "MultiLineString", "coordinates": [ [ [ 448938.027520315954462, 45809.362984375693486 ], [ 449014.330861013033427, 45869.312717656772293 ], [ 449117.955021893896628, 45748.267226193551323 ], [ 449162.365117146284319, 45691.704158382744936 ], [ 449414.024282455735374, 45403.231214623127016 ], [ 449638.354442445444874, 45152.089976237220981 ], [ 449920.772704565781169, 45061.577388679070282 ], [ 450141.685707990603987, 44793.468590429896722 ], [ 450361.460315330943558, 44529.884890344292216 ], [ 450723.597291574405972, 44483.485611412230355 ], [ 451062.958212800440378, 44439.350159389345208 ], [ 451540.11682565882802, 44446.111825057218084 ], [ 451819.129318529914599, 44559.217629598279018 ], [ 452209.737358605314512, 44543.360061102248437 ], [ 452462.550640362780541, 44533.165916998528701 ], [ 452839.492802844906691, 44517.309360267601733 ], [ 453209.602130379236769, 44503.715735712416063 ], [ 453601.348325076920446, 44486.727555038960418 ], [ 453979.428829142823815, 44470.87145491042611 ], [ 454359.786837452673353, 44456.146614547345962 ], [ 454739.005840497440659, 44440.290800240312819 ], [ 455119.363493338169064, 44424.435101461218437 ], [ 455418.866517218993977, 44410.845939819366322 ], [ 455777.586881271796301, 44397.254004351118056 ], [ 456067.9793914113543, 44384.796719192279852 ], [ 456414.172766373376362, 44371.205659489627578 ], [ 456721.647134944389109, 44361.010182280020672 ], [ 457042.791386628639884, 44444.703752562039881 ], [ 457437.958131260471418, 44549.88668869673711 ], [ 457772.767867686401587, 44640.366940602871182 ], [ 458148.574358811893035, 44738.763740834641794 ], [ 458516.408977627404965, 44834.898592206343892 ], [ 458842.1077621425502, 44924.248264180605474 ], [ 459078.979323731095064, 44985.322107890133339 ], [ 459254.355432568467222, 45032.824411798181245 ], [ 459621.050687168026343, 45130.090746250090888 ], [ 460329.38679742248496, 45315.575200981162197 ], [ 460693.804026054567657, 45416.235458630835637 ], [ 461057.082015369902365, 45511.239868438453414 ], [ 461437.441833830496762, 45610.768395586892439 ], [ 461748.334534713940229, 45691.069713765202323 ], [ 461749.473518690327182, 45695.594442311492458 ], [ 461985.205258922826033, 45756.668756262188253 ], [ 462342.788665588479489, 45852.804899560214835 ], [ 462649.125901241553947, 45935.368978758931917 ], [ 463049.983171485597268, 46039.421801334057818 ], [ 463369.985425821389072, 46119.723063853103667 ], [ 463373.402067311282735, 46126.510077524071676 ], [ 463643.297143556119408, 46195.501568011044583 ], [ 463900.665526574244723, 46265.624818717791641 ], [ 464317.465289443149231, 46375.333283588981431 ], [ 464602.164472651318647, 46451.111494840020896 ], [ 464940.386833337484859, 46538.199509675752779 ], [ 465338.955511003150605, 46399.047024370258441 ], [ 465662.365476183651481, 46284.78396190636704 ], [ 465974.387836587789934, 46176.177476491036941 ], [ 466354.736182816501241, 46041.551168051759305 ], [ 466699.782787126954645, 45920.500720296542568 ], [ 466958.283061095979065, 45829.995826825339464 ], [ 467310.162292710971087, 45706.683105503223487 ], [ 467665.457799109281041, 45581.108093018614454 ], [ 468004.810570653935429, 45461.189810489879164 ], [ 468284.947451465530321, 45362.766402394132456 ], [ 468645.936703805578873, 45231.535836280927469 ], [ 469003.509864141058642, 45107.092732848323067 ], [ 469306.422060520970263, 44998.488328476967581 ], [ 469695.880709704651963, 44861.601486287952866 ], [ 470027.26216736191418, 44743.946990391668805 ], [ 470333.590861189702991, 44638.736544455103285 ], [ 470644.474543367454316, 44529.001358341585728 ], [ 471000.908972798497416, 44403.428274333884474 ], [ 471340.262028127792291, 44288.036600318817364 ], [ 471605.594981811824255, 44193.008738918979361 ], [ 471973.417025449220091, 44059.51755969045189 ], [ 472239.892658899596427, 44092.313805497426074 ], [ 472551.919463049212936, 44126.239933798337006 ], [ 472910.636317186872475, 44165.820690617030778 ], [ 473199.887342038273346, 44199.747684863272298 ], [ 473666.788264860748313, 44248.375002659166057 ], [ 473961.732922892493661, 44280.039674462015682 ], [ 474305.64517410879489, 44318.490146554082457 ], [ 474696.24735448876163, 44361.464164148710552 ], [ 475002.579559815349057, 44394.259997020664741 ], [ 475354.462945434497669, 44432.710596440025256 ], [ 475710.901396500878036, 44473.423558160873654 ], [ 476086.698890212166589, 44511.873767906632565 ], [ 476475.02298954926664, 44557.110881149485067 ], [ 476848.542667580477428, 44594.43024875442643 ], [ 477233.450082375959028, 44635.14301143411285 ], [ 477602.414742508670315, 44684.905762970127398 ], [ 477957.714036627672613, 44736.931339981558267 ], [ 478365.396964853804093, 44792.349319537664996 ], [ 478707.030702957650647, 44843.244297893194016 ], [ 479109.019557077321224, 44900.925063934395439 ], [ 479464.31832276750356, 44949.557613358279923 ], [ 479832.14355291420361, 45000.452363442142087 ], [ 480149.862526129116304, 45046.823636198103486 ], [ 480564.377394216891844, 45103.37351397619932 ], [ 480923.092141960631125, 45155.400033891659405 ], [ 481306.859842390927952, 45209.68851312057086 ], [ 481621.162057563837152, 45252.666779735169257 ], [ 482059.590793465205934, 45314.872671818106028 ], [ 482379.586714692355599, 45358.982240039775206 ], [ 482757.660088432137854, 45411.009029899723828 ], [ 483090.182400387886446, 45458.51211807384243 ], [ 483460.284198905632365, 45511.670505192952987 ], [ 483811.026702896342613, 45560.304673597158398 ], [ 484126.467113756109029, 45603.283712026197463 ], [ 484559.201215706707444, 45666.62198839255143 ], [ 484808.592606963298749, 45700.552984071917308 ], [ 485111.506572858837899, 45758.237858071188384 ], [ 485409.86542274360545, 45818.185252554532781 ], [ 485795.909772319428157, 45895.098967561731115 ], [ 486104.51733438030351, 45951.652872775237483 ], [ 486425.651361328898929, 46012.731386811901757 ], [ 486815.111680926638655, 46087.383091521987808 ], [ 487118.025161688507069, 46143.937400067174167 ], [ 487481.293576914467849, 46217.458578583886265 ], [ 487867.337282978347503, 46292.11075065593468 ], [ 488144.058743986824993, 46340.747511091678462 ], [ 488544.906343806476798, 46422.186807906378817 ], [ 488880.843794088694267, 46484.397112740407465 ], [ 489253.221938290225808, 46562.443542328655894 ], [ 489577.771638865116984, 46632.572462422860553 ], [ 489953.565736563701648, 46697.045018483113381 ], [ 490331.63736757641891, 46769.435927534359507 ], [ 490546.86485635250574, 46811.287028044411272 ], [ 491090.057899062288925, 46916.480530813678342 ], [ 491350.83604468696285, 46967.380747478331614 ], [ 491653.748613202013075, 47028.461201858321147 ], [ 492056.872712554177269, 47104.246094860325684 ], [ 492400.780800310953055, 47173.244640472985338 ], [ 492811.876091723097488, 47251.292145566971158 ], [ 493056.711187151260674, 47297.668283025355777 ], [ 493467.806347922130954, 47380.240784598448954 ], [ 493815.130384960735682, 47443.583967609512911 ], [ 494218.253949641482905, 47519.369823597953655 ], [ 494564.43910745944595, 47588.369178580243897 ], [ 494850.269518145534676, 47638.139068600976316 ], [ 495224.92367696610745, 47707.138509582378902 ], [ 495535.80686479434371, 47765.957876179418236 ], [ 495974.231780581118073, 47848.531394578472828 ], [ 496286.253610283252783, 47908.482197145101964 ], [ 496574.361306736303959, 47962.777337913801603 ], [ 496900.048218122450635, 48024.990654458473728 ], [ 497256.481742139498238, 48096.253386206204596 ], [ 497635.690482845355291, 48167.516201414466195 ], [ 497951.128336089896038, 48229.72994606901193 ], [ 498269.982387679221574, 48271.5826672235562 ], [ 498684.492602353915572, 48327.009441499292734 ], [ 498999.93028235854581, 48371.124792342612636 ], [ 499366.612306488212198, 48423.158439564649598 ], [ 499756.069558316085022, 48475.192240528827824 ], [ 500098.837449361279141, 48521.570346354863432 ], [ 500520.179982434317935, 48587.178597755919327 ], [ 500845.866336589562707, 48630.163479501206893 ], [ 501229.629572137317155, 48691.247358767330297 ], [ 501531.40182406589156, 48733.101302121292974 ], [ 501869.614457666233648, 48784.00483067578898 ], [ 502239.712434818444308, 48832.646236620588752 ], [ 502609.810358020244166, 48886.943681019285577 ], [ 503002.683518805657513, 48937.847853980034415 ], [ 503371.642591401003301, 48994.407989952836942 ], [ 503754.266813586640637, 49044.181311373336939 ], [ 504127.7808975672815, 49093.954768456031161 ], [ 504445.495562727446668, 49142.596920882235281 ], [ 504815.593297679908574, 49192.370679681705951 ], [ 505161.777000126952771, 49238.750935620410019 ], [ 505496.573093133803923, 49278.344218470170745 ], [ 505914.498793390812352, 49329.249983660592989 ], [ 506251.57236565236235, 49369.97477484819683 ], [ 506656.971624905243516, 49420.880835216397827 ], [ 507009.987825837510172, 49463.868428712623427 ], [ 507394.889337179891299, 49511.381168030507979 ], [ 507764.986942052026279, 49555.500429797524703 ], [ 508138.500799655157607, 49601.882250156450027 ], [ 508498.349519772804342, 49644.870580775721464 ], [ 508892.361063052609097, 49693.515326222084695 ], [ 509253.348510655283462, 49737.635192994610406 ], [ 509508.431111632322427, 49769.311050362222886 ], [ 509922.940335012157448, 49820.21891015896108 ], [ 510269.123876825848129, 49860.945542847839533 ], [ 510669.967922517447732, 49911.853630814475764 ], [ 511003.625071260146797, 49951.449252833634091 ], [ 511377.138875627075322, 49995.570283875036694 ], [ 511764.317774591909256, 50044.216400223580422 ], [ 512020.539160949236248, 50072.49957974840072 ], [ 512292.703153379494324, 50106.438969065085985 ], [ 512530.70439308573259, 50130.197337040626735 ], [ 512537.533020908478647, 50383.580932742304867 ], [ 512544.359414679580368, 50777.230393276513496 ], [ 512550.049882935651112, 50988.760453871283971 ], [ 512662.783089327684138, 51255.719869855951401 ], [ 512816.510032731166575, 51619.961164970365644 ], [ 512961.127180734300055, 51955.922964876670449 ], [ 513100.05048545030877, 52285.097669883201888 ], [ 513253.77680421381956, 52656.126222870581842 ], [ 513371.064231195312459, 52935.528896360156068 ], [ 513533.900014241808094, 53322.394213490675611 ], [ 513662.574240973044652, 53631.207790636486607 ], [ 513793.525790061277803, 53943.414991785939492 ], [ 513963.198094613675494, 54089.339962180201837 ], [ 514173.864813952241093, 54278.250495098800457 ], [ 514488.156682912143879, 54555.394952934562752 ], [ 514719.320466778357513, 54760.142597774560272 ], [ 514837.74743716919329, 54950.182759788323892 ], [ 514956.174291968985926, 55142.485313162898819 ], [ 514916.313195499649737, 55367.58879394318501 ], [ 514906.063019085559063, 55434.328048388619209 ], [ 514964.138426099671051, 55492.019285792426672 ], [ 515015.382569013047032, 55487.495631910125667 ] ] ] } }
]
}
