{
"type": "FeatureCollection",
"name": "Bujagali_Kawanda_220_Line_Buffer_40m",
"crs": { "type": "name", "properties": { "name": "urn:ogc:def:crs:EPSG::32636" } },
"xy_coordinate_resolution": 1e-15,
"features": [
{ "type": "Feature", "properties": { "id": 1, "Tower Type": "Pylon" }, "geometry": { "type": "MultiPolygon", "coordinates": [ [ [ [ 449001.974798463576008, 45885.039373953426548 ], [ 449007.281640637491364, 45888.029247572783788 ], [ 449013.242331804300193, 45889.283073291109758 ], [ 449019.303989275067579, 45888.68455276057648 ], [ 449024.904365251946729, 45886.289201630490425 ], [ 449029.523998007527553, 45882.319200204561639 ], [ 449133.148158888390753, 45761.27370874134067 ], [ 449133.685753690137062, 45760.618099731691473 ], [ 449177.776319127646275, 45704.462002148815372 ], [ 449429.018272390996572, 45416.46730199681042 ], [ 449649.643273722846061, 45169.474048588905134 ], [ 449926.876706000068225, 45080.623153733009531 ], [ 449931.997445073677227, 45078.130491123345564 ], [ 449936.207988585287239, 45074.295564933403512 ], [ 450157.083951621083543, 44806.231720372059499 ], [ 450371.791910686064512, 44548.72463630502898 ], [ 450726.139039828500245, 44503.323441833243123 ], [ 450726.176661241042893, 44503.318585272012569 ], [ 451064.112135131959803, 44459.368519245377684 ], [ 451536.081030527187977, 44466.056643048032129 ], [ 451811.615636741917115, 44577.752585384274425 ], [ 451819.940593022620305, 44579.201168666659214 ], [ 452210.545896629046183, 44563.34371126343467 ], [ 452463.356441912823357, 44553.149677502049599 ], [ 452463.391222671547439, 44553.148244725351105 ], [ 452840.280138838279527, 44537.29392786914832 ], [ 453210.336208876688033, 44523.702259391124244 ], [ 453210.468621483014431, 44523.696956725332711 ], [ 453602.200586964492686, 44506.709393105724303 ], [ 453980.234688435390126, 44490.855239028845972 ], [ 454360.560520053550135, 44476.131644325483649 ], [ 454360.622342665912583, 44476.12915520259412 ], [ 454739.840094231243711, 44460.273393222116283 ], [ 455120.196495645155665, 44444.417746610364702 ], [ 455120.270008093793876, 44444.414546673680888 ], [ 455419.698415088234469, 44430.828770576714305 ], [ 455778.344139049528167, 44417.23966322587512 ], [ 455778.444054806430358, 44417.235627246460353 ], [ 456068.800264487741515, 44404.779899308086897 ], [ 456414.896462418022566, 44391.192654637539817 ], [ 456719.410583866760135, 44381.095335632824572 ], [ 457037.69730290863663, 44464.044202848293935 ], [ 457432.777083202672657, 44569.203991376271006 ], [ 457767.550163657055236, 44659.67433723375143 ], [ 457767.702063040458597, 44659.714747281905147 ], [ 458143.508554165950045, 44758.11154751367576 ], [ 458511.234608533151913, 44854.218027232935128 ], [ 458836.816607619053684, 44943.535661200643517 ], [ 458837.114364336826839, 44943.614884390481166 ], [ 459073.868044439761434, 45004.658334095009195 ], [ 459249.126650519901887, 45052.128811252412561 ], [ 459249.227731586433947, 45052.155906376683561 ], [ 459615.922986185993068, 45149.422240828593203 ], [ 459615.984321005933452, 45149.438405899549252 ], [ 460324.190862489806022, 45334.888931832676462 ], [ 460688.478988386283163, 45435.513528394978493 ], [ 460688.743808005179744, 45435.58472717753466 ], [ 461052.020443189307116, 45530.588782852952136 ], [ 461432.378907631034963, 45630.116955696074001 ], [ 461432.440130621544085, 45630.132872471367591 ], [ 461734.104397526360117, 45708.050553429835418 ], [ 461738.009530435665511, 45711.982760507598869 ], [ 461744.457455661438871, 45714.95520447857416 ], [ 461980.100818994222209, 45776.006621391672525 ], [ 462337.59002251183847, 45872.117438214343565 ], [ 462643.92122017784277, 45954.679890053448617 ], [ 462644.100917573610786, 45954.727427538135089 ], [ 463044.958187817654107, 46058.78025011326099 ], [ 463045.115304753824603, 46058.820354720381147 ], [ 463356.564107490703464, 46136.975216853235906 ], [ 463358.78317545412574, 46140.15881376114703 ], [ 463363.20551077456912, 46143.715606716541515 ], [ 463368.448868387029506, 46145.88701795378438 ], [ 463638.191430962062441, 46214.839522381633287 ], [ 463895.407932878355496, 46284.921391173258598 ], [ 463895.574605282396078, 46284.966031720090541 ], [ 464312.34767913876567, 46394.667471609856875 ], [ 464597.020192826807033, 46470.438584250674467 ], [ 464597.177391807781532, 46470.479742686948157 ], [ 464935.399752493947744, 46557.56775752268004 ], [ 464941.225455766718369, 46558.181919751143141 ], [ 464946.979213592247106, 46557.081790326592454 ], [ 465345.547891257912852, 46417.929305021098116 ], [ 465345.618050426419359, 46417.904663894682017 ], [ 465668.984066261153203, 46303.657129050166986 ], [ 465980.96240541950101, 46195.065966231530183 ], [ 465981.061238200811204, 46195.031274806264264 ], [ 466361.383322296896949, 46060.414261987709324 ], [ 466706.397687006741762, 45939.375124641119328 ], [ 466964.892008006921969, 45848.872315395208716 ], [ 467316.776707001437899, 45725.557678971090354 ], [ 467316.827028946077917, 45725.539968734323338 ], [ 467672.121992847009096, 45599.965147989030811 ], [ 468011.45716997917043, 45480.053082859711139 ], [ 468291.576987688138615, 45381.635669721537852 ], [ 468291.780553509190213, 45381.562910486361943 ], [ 468652.640423967095558, 45250.379378620098578 ], [ 469010.083567207388114, 45125.981523915921571 ], [ 469010.259819210856222, 45125.919259520960622 ], [ 469313.113042164011858, 45017.335999144343077 ], [ 469702.512586616678163, 44880.469931073464977 ], [ 469702.572317609621678, 44880.448830494657159 ], [ 470033.856458464171737, 44762.828886197756219 ], [ 470340.08748387725791, 44657.651985069984221 ], [ 470340.247885716264136, 44657.596131525162491 ], [ 470651.125908364425413, 44547.862943102634745 ], [ 471007.451339555089362, 44422.328259552537929 ], [ 471346.700664738484193, 44306.971857343618467 ], [ 471347.005500083614606, 44306.865450150427932 ], [ 471612.33845376764657, 44211.83758875058993 ], [ 471612.41800114949001, 44211.808909320272505 ], [ 471975.73288139764918, 44079.953484571975423 ], [ 472237.449610291863792, 44112.164032536435116 ], [ 472237.730834721063729, 44112.196625121941906 ], [ 472549.741807429119945, 44146.12103209792258 ], [ 472908.374608742713463, 44185.692514542271965 ], [ 473197.557462729222607, 44219.611512853000022 ], [ 473197.81556575500872, 44219.640089017426362 ], [ 473664.684925246634521, 44268.264119520354143 ], [ 473959.554357563960366, 44299.920715240135905 ], [ 474303.422956824535504, 44338.366306906165846 ], [ 474303.457973403099459, 44338.370190645408002 ], [ 474694.060153783066198, 44381.344208240036096 ], [ 474694.118327020318247, 44381.350522338143492 ], [ 475000.428800625202712, 44414.144028618567972 ], [ 475352.241852383536752, 44452.586942596622976 ], [ 475708.631722724298015, 44493.294355350415572 ], [ 475708.865698206413072, 44493.319686740418547 ], [ 476084.523827344703022, 44531.755637218477204 ], [ 476472.708775535284076, 44576.976540300325723 ], [ 476473.034634899056982, 44577.011796851656982 ], [ 476846.496612027171068, 44614.325399402325274 ], [ 477231.061118737503421, 44655.001891709049232 ], [ 477599.629216789267957, 44704.711158392899961 ], [ 477954.816386723017786, 44756.720317343468196 ], [ 477955.020131359633524, 44756.74908138684259 ], [ 478362.576405654079281, 44812.149844364794262 ], [ 478704.083720223803539, 44863.025988740198954 ], [ 478704.190027792588808, 44863.04153418027272 ], [ 479106.178881912259385, 44920.722300221474143 ], [ 479106.307289072778076, 44920.740300553516136 ], [ 479461.591578845516779, 44969.370868544196128 ], [ 479829.328700491751079, 45020.253427348769037 ], [ 480146.974115992197767, 45066.613964312637108 ], [ 480147.159082924132235, 45066.640078735494171 ], [ 480561.590281761891674, 45123.178541999353911 ], [ 480920.221459623367991, 45175.192941280882224 ], [ 480920.290796114539262, 45175.20287362363888 ], [ 481304.058496544836089, 45229.491352852550335 ], [ 481304.150220754207112, 45229.504111788941373 ], [ 481618.402461400546599, 45272.475544794280722 ], [ 482056.781257877708413, 45334.674351286841556 ], [ 482056.859734657045919, 45334.685327313687594 ], [ 482376.855655884195585, 45378.794895535356773 ], [ 482754.882603571575601, 45430.815297224049573 ], [ 483087.346461638750043, 45478.310034860107407 ], [ 483457.440743569866754, 45531.467342358359019 ], [ 483457.537268338084687, 45531.480966380338941 ], [ 483808.279772328794934, 45580.115134784544352 ], [ 483808.326632208481897, 45580.121575935321744 ], [ 484123.668764052388724, 45623.087223760456254 ], [ 484556.304724635498133, 45686.411135404843662 ], [ 484556.504952558549121, 45686.439409138845804 ], [ 484805.371504237235058, 45720.298997664336639 ], [ 485107.665892108925618, 45777.865883441663755 ], [ 485405.925684257992543, 45837.79337486813165 ], [ 485405.957520811469294, 45837.799744709285733 ], [ 485792.001870387292001, 45914.713459716484067 ], [ 485792.304704217182007, 45914.771371684721089 ], [ 486100.846291073190514, 45971.313186606414092 ], [ 486421.900363885506522, 46032.376493659619882 ], [ 486811.346625830046833, 46107.0255038005198 ], [ 486811.441082705568988, 46107.043374040287745 ], [ 487114.205982755578589, 46163.569942389156495 ], [ 487477.326253504958004, 46237.061138237266277 ], [ 487477.496372987516224, 46237.094801294413628 ], [ 487863.540079051395878, 46311.746973366462043 ], [ 487863.875138037314173, 46311.808810266142245 ], [ 488140.336018765636254, 46360.399770926851488 ], [ 488540.92434102477273, 46441.786390908222529 ], [ 488541.264577512862161, 46441.85245150791161 ], [ 488876.971055625181179, 46504.019983947597211 ], [ 489249.058514688978903, 46582.005489076436788 ], [ 489573.547514284669887, 46652.121292861753318 ], [ 489574.389778537035454, 46652.284464368924091 ], [ 489949.993896947824396, 46716.724426914915966 ], [ 490327.848027855739929, 46789.073690338685992 ], [ 490543.047347940097097, 46830.919313431535556 ], [ 491086.240935515437741, 46936.112927664929884 ], [ 491346.943645697261672, 46986.998420394891582 ], [ 491649.795306757907383, 47048.066593161711353 ], [ 491650.053463675372768, 47048.116884750954341 ], [ 492053.057888763316441, 47123.879279714950826 ], [ 492396.846585078688804, 47192.853871730389073 ], [ 492397.050383008318022, 47192.893660467583686 ], [ 492808.145674420462456, 47270.941165561569505 ], [ 493052.880718824570067, 47317.298353362399212 ], [ 493463.86781527166022, 47399.849149154455517 ], [ 493464.218036697653588, 47399.916252129267377 ], [ 493811.488602645345964, 47463.249683356007154 ], [ 494214.451549998950213, 47539.005343834469386 ], [ 494560.529733984032646, 47607.983377494041633 ], [ 494561.008252447005361, 47608.072712118257186 ], [ 494846.742783943365794, 47657.825907285856374 ], [ 495221.253404684830457, 47726.79891309501545 ], [ 495532.088810004293919, 47785.609239200290176 ], [ 495970.494043143058661, 47868.179057553694292 ], [ 496282.479903663566802, 47928.122949125325249 ], [ 496282.549721861665603, 47928.136235166850383 ], [ 496570.633063934452366, 47982.426786247320706 ], [ 496896.211327413271647, 48044.619348667663871 ], [ 497252.560687769670039, 48115.865253343952645 ], [ 497252.787901060830336, 48115.909315034055908 ], [ 497631.908464915701188, 48187.155559604660084 ], [ 497947.258293527702335, 48249.351943178553483 ], [ 497948.525466795603279, 48249.559849534154637 ], [ 498267.355582470132504, 48291.409428865146765 ], [ 498681.782146732031833, 48346.825017716779257 ], [ 498997.140250426193234, 48390.929239462100668 ], [ 499363.802376831008587, 48442.960063117316167 ], [ 499363.963722525513731, 48442.982288913161028 ], [ 499753.404435361502692, 48495.01388016983401 ], [ 500095.957749673747458, 48541.362952755916922 ], [ 500517.102816294762306, 48606.940456184456707 ], [ 500517.563027948664967, 48607.006647312540736 ], [ 500842.985429474036209, 48649.956691944033082 ], [ 501226.485733271576464, 48710.998720168165164 ], [ 501226.88199621118838, 48711.057730458196602 ], [ 501528.539628166006878, 48752.895776731304068 ], [ 501866.637833416927606, 48803.782082964178699 ], [ 501867.008300809480716, 48803.834302338895213 ], [ 502236.957630110089667, 48852.456171725971217 ], [ 502606.907215054437984, 48906.731853267381666 ], [ 502607.240460596163757, 48906.777884487783012 ], [ 502999.882927059719805, 48957.652166621584911 ], [ 503368.612062977685127, 49014.177054105588468 ], [ 503369.062646891747136, 49014.240889043219795 ], [ 503751.655938847456127, 49064.010186933090154 ], [ 504124.946366031072102, 49113.753840127617877 ], [ 504442.468827718286775, 49162.36656617961853 ], [ 504442.829799651051871, 49162.418467421812238 ], [ 504812.927534603513777, 49212.192226221282908 ], [ 505159.121212181344163, 49258.573821141646476 ], [ 505159.428150440566242, 49258.612529341735353 ], [ 505494.189539857441559, 49298.201708114174835 ], [ 505912.080551078659482, 49349.103247979590378 ], [ 506249.126970373967197, 49389.824768112535821 ], [ 506654.479789816890843, 49440.724997025165067 ], [ 506654.554037601570599, 49440.734179308245075 ], [ 507007.553916343022138, 49483.719785213812429 ], [ 507392.439108776510693, 49531.230510104520363 ], [ 507392.52190359227825, 49531.240555186421261 ], [ 507762.57090573181631, 49575.354023031366523 ], [ 508136.036189540405758, 49621.729811643497669 ], [ 508136.128423439105973, 49621.741047478783003 ], [ 508495.938023214635905, 49664.724704694745014 ], [ 508889.910464870044962, 49713.364622646586213 ], [ 508889.934718953678384, 49713.367602018915932 ], [ 509250.903013186354656, 49757.48512786757783 ], [ 509505.966465348785277, 49789.158607357909204 ], [ 509505.993133765994571, 49789.161900820661685 ], [ 509920.502357145829592, 49840.069760617399879 ], [ 509920.603557759139221, 49840.081927856932452 ], [ 510266.695534481899813, 49880.797788405092433 ], [ 510667.448118287778925, 49931.694260508222214 ], [ 510667.611028836807236, 49931.714271594122692 ], [ 511001.2681775795063, 49971.309893613281019 ], [ 511374.719132307451218, 50015.423503523321415 ], [ 511761.824527213757392, 50064.060384639800759 ], [ 511762.123389219923411, 50064.095652544514451 ], [ 512018.20441636297619, 50092.363338417882915 ], [ 512290.228282349242363, 50126.285253689253295 ], [ 512290.716535994957667, 50126.340058265617699 ], [ 512511.18629711488029, 50148.348354183028277 ], [ 512517.537692602840252, 50384.023729711509077 ], [ 512524.362421208701562, 50777.577167158749944 ], [ 512524.366647641523741, 50777.76822797414934 ], [ 512530.057115897594485, 50989.298288568919816 ], [ 512531.625312378280796, 50996.54089086267777 ], [ 512644.357729860581458, 51263.498438658825762 ], [ 512798.083884698979091, 51627.737865343668091 ], [ 512798.139697762439027, 51627.868806409904209 ], [ 512942.728666597919073, 51963.765142959964578 ], [ 513081.598741698137019, 52292.813721949620231 ], [ 513235.299940097436775, 52663.781645290328015 ], [ 513235.3357086199685, 52663.867410977007239 ], [ 513352.623135601461399, 52943.270084466581466 ], [ 513515.452383977884892, 53330.119900364290515 ], [ 513644.112742900091689, 53638.900195260648616 ], [ 513644.130900067742914, 53638.943627776112407 ], [ 513775.082449155976065, 53951.150828925565293 ], [ 513780.48465594247682, 53958.578395786877081 ], [ 513949.999938923050649, 54104.368321347050369 ], [ 514160.512466919608414, 54293.140586727786285 ], [ 514160.63699485710822, 54293.251321808922512 ], [ 514474.912358077301178, 54570.381224784287042 ], [ 514703.883804975892417, 54773.187060992684565 ], [ 514820.745487927983049, 54960.71540093186195 ], [ 514935.153593877505045, 55146.49227508794138 ], [ 514896.619578290265054, 55364.101468146662228 ], [ 514896.544987561646849, 55364.552685427457618 ], [ 514886.294811147556175, 55431.291939872891817 ], [ 514886.322661720390897, 55437.54025807891594 ], [ 514888.27728251053486, 55443.475046501836914 ], [ 514891.967891504522413, 55448.517036318517057 ], [ 514950.043298518634401, 55506.20827372232452 ], [ 514954.689980949566234, 55509.646732693348895 ], [ 514960.125954781891778, 55511.612653903190221 ], [ 514965.897117003332824, 55511.941810891054047 ], [ 515017.141259916708805, 55507.418157008753042 ], [ 515013.623878109385259, 55467.573106811498292 ], [ 514971.639016553759575, 55471.279383688735834 ], [ 514927.375589420262258, 55427.308759730047313 ], [ 514936.046687743859366, 55370.850937546274508 ], [ 514975.86790917837061, 55145.972638959421602 ], [ 514975.820544403220993, 55138.740347837207082 ], [ 514973.204025528451893, 55131.99778843617969 ], [ 514854.777170728659257, 54939.695235061604762 ], [ 514854.721363433171064, 54939.605150077943108 ], [ 514736.294393042335287, 54749.564988064179488 ], [ 514732.581265291373711, 54745.170917080751678 ], [ 514501.417481425160076, 54540.423272240754159 ], [ 514501.384502007276751, 54540.394126224440697 ], [ 514187.155127678939607, 54263.304776530167146 ], [ 513976.550441646308172, 54074.449870551216009 ], [ 513976.239228732476477, 54074.176558179264248 ], [ 513810.144153813889716, 53931.328148392734875 ], [ 513681.026686017459724, 53623.493659065155953 ], [ 513552.361512314761057, 53314.701808866513602 ], [ 513552.333656789851375, 53314.635294596184394 ], [ 513389.501604532008059, 52927.778841074803495 ], [ 513272.235883690649644, 52648.427876056877722 ], [ 513118.527349566691555, 52277.442247463455715 ], [ 513118.4767114832066, 52277.321154327772092 ], [ 512979.553406767197885, 51948.146449321240652 ], [ 512979.497515703027602, 51948.015323437131883 ], [ 512834.908507210784592, 51612.118894760053081 ], [ 512681.209237359871622, 51247.943169482648955 ], [ 512569.941255055193324, 50984.453496442270989 ], [ 512564.354751353792381, 50776.788078889614553 ], [ 512557.530014379357453, 50383.234158860068419 ], [ 512557.525761965138372, 50383.042133111433941 ], [ 512550.697134142392315, 50129.658537409755809 ], [ 512549.715265148435719, 50123.985514166830399 ], [ 512547.158000383584294, 50118.827253184826986 ], [ 512543.237255644344259, 50114.611210001261497 ], [ 512538.277935788326431, 50111.686760309145029 ], [ 512532.691010470269248, 50110.29624784009502 ], [ 512294.9342341942247, 50086.562283317827678 ], [ 512023.014031979488209, 50052.653295124233409 ], [ 512022.733546321222093, 50052.620327427466691 ], [ 511766.661723637429532, 50024.3536575948674 ], [ 511379.632123005227186, 49975.726299458816356 ], [ 511379.485048491100315, 49975.70837377323187 ], [ 511005.976604701660108, 49931.587975945920334 ], [ 510672.406312530045398, 49892.00266133355035 ], [ 510271.643681055516936, 49841.104913154093083 ], [ 510271.460654078866355, 49841.082525149868161 ], [ 509925.327728073694743, 49800.361847138759913 ], [ 509510.882424812822137, 49749.461837677488802 ], [ 509255.813156938820612, 49717.787635998924088 ], [ 509255.774854754214175, 49717.78291719777917 ], [ 508894.799535108439159, 49673.664532703507575 ], [ 508500.800117955368478, 49625.021284351219947 ], [ 508500.721895988855977, 49625.011783453388489 ], [ 508140.919305869843811, 49582.028963626631594 ], [ 507767.451552166778129, 49535.652868310477061 ], [ 507767.354375639639329, 49535.641042641611421 ], [ 507397.298178645723965, 49491.526717099513917 ], [ 507012.438054240890779, 49444.019086638611043 ], [ 507012.405413141183089, 49444.015084620776179 ], [ 506659.426344687701203, 49401.032012831761676 ], [ 506254.064200740715023, 49350.130613039429591 ], [ 506253.971294336370192, 49350.11916755027778 ], [ 505916.907379461976234, 49309.39554315564601 ], [ 505498.991335445956793, 49258.490954151173355 ], [ 505498.921942820190452, 49258.48262474884541 ], [ 505164.279468636319507, 49218.907508997319383 ], [ 504818.254073359305039, 49172.54846239634935 ], [ 504448.342048374412116, 49122.799679386407661 ], [ 504130.807632576441392, 49074.185123158647912 ], [ 504130.422689839848317, 49074.13001288153464 ], [ 503756.908605859207455, 49024.356555798840418 ], [ 503756.846758095896803, 49024.348412282954087 ], [ 503374.44819101842586, 48974.60444500047015 ], [ 503005.714047228975687, 48918.07878982728289 ], [ 503005.253416229737923, 48918.01365051153698 ], [ 502612.547071789158508, 48867.131091773691878 ], [ 502242.61557778425049, 48812.858064372492663 ], [ 502242.31859167519724, 48812.816764957482519 ], [ 501872.406092440418433, 48764.199736089118232 ], [ 501534.378448315197602, 48713.324049832903256 ], [ 501534.149399992020335, 48713.29093043042667 ], [ 501232.575575066206511, 48671.464507673474145 ], [ 500849.010175455303397, 48610.412118100372027 ], [ 500848.483291075215675, 48610.335429944585485 ], [ 500523.027427465480287, 48567.380968905337795 ], [ 500101.914615500834771, 48501.808487926326052 ], [ 500101.519107600324787, 48501.750944015519053 ], [ 499758.751216555130668, 48455.372838189483446 ], [ 499758.718142278783489, 48455.368391180316394 ], [ 499369.341608547314536, 48403.34537463302695 ], [ 499002.740212015749421, 48351.323168789946067 ], [ 499002.70041093416512, 48351.317561650903372 ], [ 498687.262730929534882, 48307.202210807583469 ], [ 498687.143335821572691, 48307.185879456017574 ], [ 498272.633121146878693, 48251.75910518028104 ], [ 498272.585256973514333, 48251.752763758413494 ], [ 497954.368130936811212, 48209.983645328749844 ], [ 497639.560525407548994, 48147.894204304924642 ], [ 497639.384323924023192, 48147.860272586614883 ], [ 497260.289317339367699, 48076.618830866857024 ], [ 496903.969272492278833, 48005.378787320725678 ], [ 496903.800803849881049, 48005.345856155654474 ], [ 496578.113892463734373, 47943.132539610982349 ], [ 496578.065195157891139, 47943.123299892053183 ], [ 496289.992419608519413, 47888.834740118596528 ], [ 495978.005487200804055, 47828.890642598249542 ], [ 495977.933523763436824, 47828.876952398342837 ], [ 495539.516764419153333, 47746.304970194265479 ], [ 495228.641731756157242, 47687.487146561506961 ], [ 495228.54612334293779, 47687.469298051481019 ], [ 494853.891964522365015, 47618.469857070078433 ], [ 494853.700373157975264, 47618.435535062963027 ], [ 494568.109765329456422, 47568.707400437742763 ], [ 494222.163323116896208, 47499.755624684155919 ], [ 494221.949149252730422, 47499.714150120984414 ], [ 493818.8255845719832, 47423.92829413254367 ], [ 493818.718696185213048, 47423.908500078694487 ], [ 493471.570068976376206, 47360.597307416021067 ], [ 493060.649719801731408, 47278.059918469349213 ], [ 493060.433358477370348, 47278.017699303265545 ], [ 492815.602386209357064, 47231.642342845014355 ], [ 492404.61321985477116, 47153.614985867883661 ], [ 492060.80692778644152, 47084.636863602921949 ], [ 492060.567862080817576, 47084.590411967692489 ], [ 491657.573006530932616, 47008.829816018987913 ], [ 491354.789351131068543, 46947.775356174941408 ], [ 491354.667461088101845, 46947.751171620431705 ], [ 491093.88931546342792, 46896.850954955778434 ], [ 491093.860405613784678, 46896.845334254292538 ], [ 490550.674864404078107, 46791.653284208099649 ], [ 490335.454875988827553, 46749.803642147235223 ], [ 490335.398522994015366, 46749.79276816717902 ], [ 489957.326891981298104, 46677.401859115932893 ], [ 489956.947596891783178, 46677.333016537049843 ], [ 489581.576381581602618, 46612.933011665496451 ], [ 489257.446062870672904, 46542.89471188976313 ], [ 489257.324580628715921, 46542.868856485911238 ], [ 488884.946436427184381, 46464.822426897662808 ], [ 488884.485560382308904, 46464.731469138874672 ], [ 488548.718514554260764, 46402.552720515770488 ], [ 488148.040746768529061, 46321.14792808983475 ], [ 488147.520888927858323, 46321.049451481470896 ], [ 487870.967220783582889, 46272.44218243866635 ], [ 487485.175913554732688, 46197.83881862580165 ], [ 487121.992485098016914, 46124.334840413794154 ], [ 487121.695759909576736, 46124.27711754887423 ], [ 486818.829529060982168, 46067.731630618909549 ], [ 486429.416416425490752, 45993.088974533369765 ], [ 486429.388297264988068, 45993.083605517073011 ], [ 486108.254270316392649, 45932.005091480408737 ], [ 486108.12240248254966, 45931.980468652247509 ], [ 485799.666480537038296, 45875.454352261062013 ], [ 485413.789245537889656, 45798.573932399718615 ], [ 485115.446311344450805, 45738.629735757589515 ], [ 485115.247999838145915, 45738.590931488171918 ], [ 484812.334033942606766, 45680.906057488900842 ], [ 484811.288870111457072, 45680.735563325622934 ], [ 484561.997664284077473, 45646.818198394888896 ], [ 484129.363604827318341, 45583.49456501390523 ], [ 484129.167184443969745, 45583.466809688034118 ], [ 483813.75020733353449, 45540.490964128322958 ], [ 483463.079408459714614, 45491.866738399126916 ], [ 483093.025855723652057, 45438.715280908436398 ], [ 482760.488509765651543, 45391.210039199184394 ], [ 482760.386600052705035, 45391.195748132617155 ], [ 482382.315499983378686, 45339.169271153135924 ], [ 482062.361101533169858, 45295.065426603687229 ], [ 481623.971593151334673, 45232.865100266433728 ], [ 481623.871679200557992, 45232.851181066798745 ], [ 481309.61534090078203, 45189.879187740742054 ], [ 480925.928164748242125, 45135.602099623109098 ], [ 480567.248076554154977, 45083.580606586976501 ], [ 480567.080837421875913, 45083.557071438808634 ], [ 480152.658513777481858, 45027.019818966495222 ], [ 479835.031963051122148, 44980.662035327608464 ], [ 479834.884769849479198, 44980.641110838791064 ], [ 479467.059539702779148, 44929.746360754928901 ], [ 479467.030590772046708, 44929.742376739159226 ], [ 479111.796057835454121, 44881.118619359789591 ], [ 478709.924552785523701, 44823.454691557177284 ], [ 478368.343947587651201, 44772.567628690660058 ], [ 478368.090870121843182, 44772.531578132380673 ], [ 477960.509888198517729, 44717.12745654709579 ], [ 477605.312392413325142, 44665.116785608217469 ], [ 477605.087965197744779, 44665.08522108917532 ], [ 477236.123305065033492, 44615.322469553160772 ], [ 477235.55380442988826, 44615.253960337591707 ], [ 476850.64638963440666, 44574.541197657905286 ], [ 476850.531022230687086, 44574.529333052254515 ], [ 476477.174418332695495, 44537.226258627786592 ], [ 476089.013104226149153, 44492.008108755791909 ], [ 476088.734588506631553, 44491.977639327087672 ], [ 475713.054157057427801, 44453.539406959054759 ], [ 475356.73261921107769, 44412.839799250483338 ], [ 475356.635431207250804, 44412.828938924438262 ], [ 475004.752045588102192, 44374.378339505077747 ], [ 475004.70858728379244, 44374.373638831231801 ], [ 474698.40547319612233, 44341.58092045848025 ], [ 474307.84988481621258, 44298.612028911615198 ], [ 473963.955140176753048, 44260.163514109932294 ], [ 473963.867815247911494, 44260.153945040372491 ], [ 473668.923157216166146, 44228.489273237522866 ], [ 473668.860041144012939, 44228.482598505011993 ], [ 473202.088262594887055, 44179.868730970862089 ], [ 472912.966196495923214, 44145.956862627303053 ], [ 472912.829801487561781, 44145.941338851378532 ], [ 472554.112947349902242, 44106.360582032684761 ], [ 472554.081287227745634, 44106.357114173821174 ], [ 472242.195210635429248, 44072.446286933911324 ], [ 471975.860074056952726, 44039.667332651442848 ], [ 471966.594006111554336, 44040.717389289158746 ], [ 471598.811705853731837, 44174.19414472036442 ], [ 471333.670544379507191, 44269.153316561380052 ], [ 470994.470336187805515, 44384.49301730908337 ], [ 470994.263268559239805, 44384.564695268280047 ], [ 470637.828839128196705, 44510.137779275981302 ], [ 470327.013918996555731, 44619.848690061080561 ], [ 470020.765544674359262, 44725.03154977678787 ], [ 470020.570559456944466, 44725.099646184964513 ], [ 469689.218950590060558, 44842.743544492564979 ], [ 469299.790183608944062, 44979.61988369145547 ], [ 469299.672105451172683, 44979.661801804330025 ], [ 468996.847889584954828, 45088.234662146096525 ], [ 468639.363000739249401, 45212.647045213328965 ], [ 468639.103601761918981, 45212.739328188697982 ], [ 468278.215935716871172, 45343.932964595776866 ], [ 467998.181034431327134, 45442.320543162473768 ], [ 467998.146919105958659, 45442.332563923970156 ], [ 467658.794147561304271, 45562.250846452705446 ], [ 467303.522705637209583, 45687.817353597230976 ], [ 466951.671380375395529, 45811.120295403976343 ], [ 466693.17384021601174, 45901.624231726673315 ], [ 466348.115331265318673, 46022.678851693213801 ], [ 466348.062781203479972, 46022.697369736531982 ], [ 465967.763805942086037, 46157.306203060841653 ], [ 465655.790907351940405, 46265.895472165873798 ], [ 465655.702936760382727, 46265.926322381943464 ], [ 465332.328028264688328, 46380.176999067414727 ], [ 464939.510625978349708, 46517.321538672309543 ], [ 464607.230236588860862, 46431.763506902709196 ], [ 464322.609569267660845, 46356.00619417832786 ], [ 464322.556210734997876, 46355.99207058668253 ], [ 463905.839880351559259, 46246.305566500297573 ], [ 463648.554737252008636, 46176.204995555577625 ], [ 463648.250342480372638, 46176.124627581331879 ], [ 463386.855304815398995, 46109.30594565012143 ], [ 463384.584277712448966, 46106.052894744301739 ], [ 463380.131453620095272, 46102.487689766436233 ], [ 463374.853292553161737, 46100.324510466780339 ], [ 463054.92967797484016, 46020.042981783110008 ], [ 462654.240844060026575, 45916.033881192801346 ], [ 462347.993346652190667, 45833.493988265698135 ], [ 461990.397863034100737, 45737.354594034855836 ], [ 461990.221321951714344, 45737.307994095106551 ], [ 461763.713993628625758, 45678.6235773572771 ], [ 461759.790418900782242, 45674.675729578979372 ], [ 461753.336237922892906, 45671.705236880727171 ], [ 461442.474161120480858, 45591.411828679294558 ], [ 461062.144941569364164, 45491.891308329271851 ], [ 460698.996897974517196, 45396.920881706115324 ], [ 460334.711835090769455, 45296.297131217019341 ], [ 460334.453163584577851, 45296.227541331703833 ], [ 459626.147733557852916, 45110.751120506050938 ], [ 459259.53370952809928, 45013.506332555414701 ], [ 459084.2081057796604, 44966.017708435902023 ], [ 459083.972721536818426, 44965.955487680257647 ], [ 458847.250343440740835, 44904.920108737205737 ], [ 458521.700132150901482, 44815.611195186305849 ], [ 458521.466181889292784, 44815.548535745088884 ], [ 458153.635863511241041, 44719.414808307607018 ], [ 457777.909701421216596, 44621.039040496092639 ], [ 457443.175835289817769, 44530.579292065856862 ], [ 457443.102485995565075, 44530.559619225154165 ], [ 457047.935741363733541, 44425.376683090456936 ], [ 457047.835130406368989, 44425.350183157286665 ], [ 456726.690878722118214, 44341.656612875267456 ], [ 456720.984323479176965, 44341.021168273284275 ], [ 456413.509954908164218, 44351.216645482891181 ], [ 456413.388199177046772, 44351.221054056586581 ], [ 456067.19482421502471, 44364.812113759238855 ], [ 456067.122217876720242, 44364.815096296937554 ], [ 455776.779660570493434, 44377.270238574441464 ], [ 455418.109259441262111, 44390.860280944609258 ], [ 455417.960002463369165, 44390.866494606903871 ], [ 455118.493731864902657, 44404.453988665278303 ], [ 454738.172838190454058, 44420.308155091166554 ], [ 454358.982241620135028, 44436.162781516461109 ], [ 453978.655146541947033, 44450.886425132288423 ], [ 453978.590797336248215, 44450.889020056507434 ], [ 453600.510293270344846, 44466.745120185041742 ], [ 453600.481833973142784, 44466.746334026043769 ], [ 453208.801836794940755, 44483.731644025996502 ], [ 452838.758724347455427, 44497.322836588893551 ], [ 452838.652220536139794, 44497.327032540779328 ], [ 452461.727447812620085, 44513.182857749154209 ], [ 452208.931557055271696, 44523.376300598727539 ], [ 451822.637062464782503, 44539.058750742893608 ], [ 451547.630507446825504, 44427.576869271222677 ], [ 451540.400210960418917, 44426.113832838724193 ], [ 451063.241598102031276, 44419.352167170851317 ], [ 451060.378843133803457, 44419.517185529562994 ], [ 450721.036730312218424, 44463.650191432752763 ], [ 450358.918567076849286, 44510.047059923279448 ], [ 450351.843575972074177, 44512.348689954713336 ], [ 450346.09937330003595, 44517.077023233679938 ], [ 450126.324765959696379, 44780.660723319284443 ], [ 450126.250423971097916, 44780.750414175563492 ], [ 449909.073634999222122, 45044.324794117776037 ], [ 449632.250441011157818, 45133.044211183281732 ], [ 449627.46201282920083, 45135.316336886877252 ], [ 449623.438549077720381, 45138.76645849445049 ], [ 449399.108389088010881, 45389.907696880356525 ], [ 449398.953226240118966, 45390.083467114716768 ], [ 449147.294060930667911, 45678.556410874334688 ], [ 449146.634385350043885, 45679.353284844604786 ], [ 449102.486137798929121, 45735.582849446283944 ], [ 449011.608278837287799, 45841.739126202905027 ], [ 448950.383582865411881, 45793.636328079039231 ], [ 448925.671457766497042, 45825.089640672347741 ], [ 449001.974798463576008, 45885.039373953426548 ] ] ] ] } }
]
}
