{
"type": "FeatureCollection",
"name": "Kawanda_Masaka_220_Line_Buffer_40m",
"crs": { "type": "name", "properties": { "name": "urn:ogc:def:crs:EPSG::32636" } },
"xy_coordinate_resolution": 1e-15,
"features": [
{ "type": "Feature", "properties": { "full_id": "w584663041", "osm_id": "584663041", "osm_type": "way", "source_ref": null, "name": null, "wires": "double", "voltage": "220000", "power": "line", "frequency": "50", "cables": "6" }, "geometry": { "type": "MultiPolygon", "coordinates": [ [ [ [ 431134.324253004451748, 28510.719858165462938 ], [ 430924.256940722640138, 28209.773418525270245 ], [ 430657.594946383091155, 27821.894491890692734 ], [ 430657.437707476201467, 27821.669109340386058 ], [ 430505.6519458492985, 27607.25732039957802 ], [ 430505.599919651518576, 27607.184177057344641 ], [ 430207.748098964395467, 27190.419141385416879 ], [ 429917.224590453552082, 26775.675241949200426 ], [ 429757.496169608610217, 26547.083822169701307 ], [ 429577.773100126767531, 26285.886621842470049 ], [ 429577.711884288990404, 26285.798165297917876 ], [ 429271.012782317644451, 25845.156851785737672 ], [ 428951.838081647932995, 25386.608412581608718 ], [ 428951.584528401843272, 25386.252497248584405 ], [ 428642.404595305444673, 24962.135738436118118 ], [ 428636.19907494680956, 24956.571518474829645 ], [ 428316.012816275819205, 24772.795650648673472 ], [ 428315.768926296615973, 24772.65792755720031 ], [ 427958.751528615015559, 24574.336699084018619 ], [ 427609.043962150928564, 24376.952670403396041 ], [ 427355.98261299659498, 24232.014280978295574 ], [ 427355.74416564690182, 24231.879871152887063 ], [ 426886.630045681493357, 23971.660047286637564 ], [ 426635.420239007100463, 23827.938477041217993 ], [ 426635.174329117988236, 23827.800081036581105 ], [ 426356.722552941879258, 23673.666117688917438 ], [ 425917.99249329167651, 23428.370510860531795 ], [ 425557.124134699406568, 23226.337095852632046 ], [ 425556.977750725869555, 23226.255944902561168 ], [ 425299.155388293613214, 23084.733953660033876 ], [ 424827.921768250525929, 22820.480524748149037 ], [ 424827.744669848063495, 22820.382388377809548 ], [ 424347.615052602835931, 22557.493636396364309 ], [ 424004.775708428234793, 22363.090028405738849 ], [ 423660.908514405717142, 22168.309936377816484 ], [ 423660.657328835339285, 22168.170030079814751 ], [ 423398.510334368329495, 22024.61750239173125 ], [ 422882.258296432788484, 21733.674001144554495 ], [ 422451.898571166791953, 21418.334945898848673 ], [ 422451.643294265726581, 21418.150964698201278 ], [ 422227.470882661582436, 21259.251623877931706 ], [ 421771.530403523414861, 20935.910867767706804 ], [ 421250.126581946271472, 20551.346458203519433 ], [ 421250.110376332129817, 20551.33451824570875 ], [ 420985.794430722948164, 20356.797193663900543 ], [ 420984.707269639184233, 20356.051011597333854 ], [ 420813.966389381501358, 20246.962675385966577 ], [ 419836.802731866540853, 19565.82603792788359 ], [ 415718.905783301161136, 16695.371694055411353 ], [ 415718.369092989421915, 16695.010341356570279 ], [ 405564.549253286910243, 10094.612394097330252 ], [ 405259.169516107300296, 9856.552553886691385 ], [ 405259.139764014689717, 9856.529405584044071 ], [ 404932.427078822627664, 9602.827959598163943 ], [ 404666.981051328766625, 9396.150299239636297 ], [ 404424.806052148924209, 9204.730282530776094 ], [ 404424.688548280973919, 9204.638115781121087 ], [ 404171.116361342603341, 9007.267872543887279 ], [ 403770.119628018583171, 8694.191228731793672 ], [ 403410.221236053504981, 8411.514455484155405 ], [ 403410.190992029733025, 8411.490747716397891 ], [ 403096.387983382621314, 8165.992347708634952 ], [ 403096.367211379576474, 8165.976119143802862 ], [ 402767.280536766746081, 7909.219284115487426 ], [ 402431.184140311495867, 7646.469720997934019 ], [ 402125.684605064685456, 7406.838893511663628 ], [ 402125.644943641964346, 7406.807864054702804 ], [ 401769.538415364571847, 7128.926852346853593 ], [ 401456.946004227851517, 6884.406644153824345 ], [ 401456.893280514690559, 6884.365543754494865 ], [ 401111.306639389484189, 6615.893254288991557 ], [ 400797.30387748638168, 6371.153750265684721 ], [ 400796.673634877311997, 6370.682166825018612 ], [ 400308.768181210150942, 6020.365948985341674 ], [ 400308.70097212534165, 6020.317902914037404 ], [ 400105.435797922546044, 5875.642224677077138 ], [ 399695.460712437343318, 5582.564309470329135 ], [ 399695.421028315846343, 5582.536013577893755 ], [ 399415.313608845870476, 5383.325940793211885 ], [ 399005.51965504407417, 5088.640646638717953 ], [ 399005.424451186147053, 5088.57260662488261 ], [ 398726.509559657017235, 4890.468673678052255 ], [ 398315.671067086223047, 4595.264252868772019 ], [ 398315.609012739441823, 4595.219843514679269 ], [ 398043.972069063340314, 4401.60469869714052 ], [ 397684.319146652414929, 4145.765815723185369 ], [ 397444.306928076664917, 3972.203910893941611 ], [ 397444.199167732032947, 3972.126528318319743 ], [ 396994.731127664505038, 3651.618157495106061 ], [ 396556.10453221591888, 3338.974969453724043 ], [ 396102.857328328653239, 3013.587841716008825 ], [ 396102.82626508193789, 3013.56558628429184 ], [ 395675.207141228136607, 2707.813330079914977 ], [ 395224.210983565484639, 2056.438102910132784 ], [ 395224.191739486879669, 2056.410358693793114 ], [ 394990.762053117563482, 1720.480301180623655 ], [ 394743.606536386767402, 1364.396980000522717 ], [ 394509.441718882299028, 1026.104145021645536 ], [ 394310.19275463942904, 737.612023392946185 ], [ 394310.155324265011586, 737.558017977628651 ], [ 394100.345679008867592, 435.899413205249402 ], [ 393850.972158282937016, 73.462735726482862 ], [ 393850.915598218329251, 73.380967937236065 ], [ 393620.978065073897596, -257.275564398132644 ], [ 393439.306214733689558, -525.130703821919042 ], [ 393439.177771647693589, -525.317785424816861 ], [ 393222.2033098374377, -837.537300170362187 ], [ 393010.337117836112157, -1144.638825717184773 ], [ 393008.554696063278243, -1146.864507883904707 ], [ 392466.915627623675391, -1732.250782853236842 ], [ 392464.148407784872688, -1734.732848256442594 ], [ 392213.417514542466961, -1920.659080064427826 ], [ 391867.955978211772162, -2178.020914866999192 ], [ 391867.883559572161175, -2178.074611900118271 ], [ 391529.711940129403956, -2427.643112462845238 ], [ 391195.323132438934408, -2675.597420806182527 ], [ 390795.270448136085179, -3166.892418505271962 ], [ 390793.946427928283811, -3168.363343641578012 ], [ 384692.309230690065306, -9306.918034076808908 ], [ 384689.582551480852999, -9309.211089960905156 ], [ 384350.572603733686265, -9546.172981343355787 ], [ 384164.482382192916702, -9776.495999651358943 ], [ 384069.511680617171805, -10087.125463498645331 ], [ 384065.624257683462929, -10094.231069244240643 ], [ 383798.744487913965713, -10408.200186256570305 ], [ 383489.874406646937132, -10780.981956480200097 ], [ 383145.699384752777405, -11196.260049573305878 ], [ 383145.541521372157149, -11196.448163200564522 ], [ 382790.138172166945878, -11614.712925722196815 ], [ 382446.997357254964299, -12032.791943082134821 ], [ 382100.921796334150713, -12458.996299387186809 ], [ 382095.55407217470929, -12463.617262494208262 ], [ 382088.912338704394642, -12466.077575319281095 ], [ 381540.993311941972934, -12563.944684947326095 ], [ 381540.971801732608583, -12563.948514892250387 ], [ 381100.772919172421098, -12642.07895232624287 ], [ 380994.564859830250498, -12660.927749081431102 ], [ 380748.372071868740022, -12705.185959642072703 ], [ 380446.821516592870466, -12759.388773549580947 ], [ 379899.801778526045382, -12857.255045739995694 ], [ 379325.496838585706428, -12961.65334539746982 ], [ 379325.423228686326183, -12961.666584218255593 ], [ 378807.048628174234182, -13053.896562204461588 ], [ 378245.148667154659051, -13153.538209154723518 ], [ 378071.746491932368372, -13185.350255039229523 ], [ 378055.62279056845, -13188.313122016503257 ], [ 377989.45164978102548, -13200.444349692779724 ], [ 377821.865987675730139, -13231.194839084449995 ], [ 377785.129776927060448, -13237.92844888455511 ], [ 377764.813210720720235, -13241.664800933924198 ], [ 377690.715264674217906, -13255.256115541342297 ], [ 377690.547274142736569, -13255.286188692549331 ], [ 377312.677362293703482, -13321.268700990749494 ], [ 376909.431872223329265, -13393.929426197148132 ], [ 376909.359457353770267, -13393.94233717464158 ], [ 376534.487384352425579, -13460.067912706084826 ], [ 376329.607065658899955, -13497.454075304669459 ], [ 376128.263482225942425, -13534.19847770216802 ], [ 376128.179490060021635, -13534.213620830538275 ], [ 375714.284137173613999, -13607.924236263750572 ], [ 375711.153187954158057, -13608.230517759200666 ], [ 375300.114622379245702, -13615.952752921417414 ], [ 374896.387733431882225, -13624.426457988038237 ], [ 374896.361244940315373, -13624.4269963950901 ], [ 374458.611840150610078, -13633.034664522221647 ], [ 374111.167845851159655, -13641.063596756046536 ], [ 374111.104201722657308, -13641.064966142243065 ], [ 373754.89865260606166, -13648.162057075338453 ], [ 373698.888339900120627, -13955.729210028395755 ], [ 373698.874108790245373, -13955.806495019602153 ], [ 373645.497831697168294, -14242.513620285859361 ], [ 373636.504601339634974, -14290.834743444149353 ], [ 373572.355149953335058, -14644.547513467587123 ], [ 373572.325232106086332, -14644.708711319406575 ], [ 373524.201132202986628, -14898.206550085891649 ], [ 373511.494000928185415, -14965.114115965428937 ], [ 373441.874371872225311, -15331.808019973273986 ], [ 373289.128224817104638, -16166.418174985006772 ], [ 373188.388572219992056, -16716.873069168086658 ], [ 373188.380557802855037, -16716.916589070697228 ], [ 373111.240653532382566, -17133.215626848737884 ], [ 373111.22471217304701, -17133.30063086224618 ], [ 373040.370499698328786, -17506.658390635358955 ], [ 372975.33581380918622, -17872.31026800744803 ], [ 372975.304189436952583, -17872.483639302899974 ], [ 372904.730100182583556, -18249.956946617185167 ], [ 372902.114987826673314, -18256.745286696455878 ], [ 372740.182293814083096, -18520.510102669719345 ], [ 372740.096618961077183, -18520.648390036389173 ], [ 372540.259615985502023, -18840.293319829106622 ], [ 372304.404395046411082, -19219.304011779826396 ], [ 372102.174080581462476, -19546.472264320738759 ], [ 371909.865406662109308, -19865.749687540137529 ], [ 371909.738641466712579, -19865.957280727456236 ], [ 371737.084476633812301, -20144.871681976412219 ], [ 371581.358023276319727, -20480.010664433521015 ], [ 371395.416578210017178, -20885.385851415645448 ], [ 371227.526982614013832, -21251.393236733616504 ], [ 371227.505859082972165, -21251.439133978885366 ], [ 371064.223680695751682, -21605.042223354801536 ], [ 370871.432948303758167, -22022.56378792488249 ], [ 370709.51180389651563, -22373.807301376440591 ], [ 370709.50298436259618, -22373.826406494823459 ], [ 370535.499122678476851, -22750.237900843509124 ], [ 370365.980399224266876, -23120.580078948401933 ], [ 370365.954596211377066, -23120.636220657179365 ], [ 370182.243515760113951, -23518.729594840537175 ], [ 370182.209110833297018, -23518.803750001545268 ], [ 370009.149379601120017, -23889.8225804041831 ], [ 369854.584287050121929, -24230.89102048109271 ], [ 369854.524730717937928, -24231.021198254926276 ], [ 369648.302849211380817, -24677.548312283215637 ], [ 369506.545071964443196, -24988.720201282303606 ], [ 369506.476414484437555, -24988.869286428489431 ], [ 369402.473559052217752, -25212.287083304716361 ], [ 369154.029262371186633, -25748.938206153121428 ], [ 369060.341390551009681, -25955.18453540066912 ], [ 369060.28573400870664, -25955.30598003679188 ], [ 368924.188513247412629, -26249.675393229379551 ], [ 368789.593881196982693, -26541.900200911393767 ], [ 368789.576418944692705, -26541.938010386245878 ], [ 368571.117757360159885, -27013.656398659659317 ], [ 368451.298234728397802, -27272.383537484161934 ], [ 368299.26445739576593, -27608.280036005064176 ], [ 368299.17325875768438, -27608.478630695793981 ], [ 368181.143663615453988, -27861.841419262935233 ], [ 368026.862789895269088, -28195.540851559089788 ], [ 367814.963124760310166, -28657.669650759373326 ], [ 367814.952995863277465, -28657.691705390319839 ], [ 367675.269350683200173, -28961.352550431856798 ], [ 367672.613133677165024, -28965.616983491654537 ], [ 367668.977974464069121, -28969.084907308577385 ], [ 367346.002811604645103, -29207.514584850010579 ], [ 367345.806886339734774, -29207.657395987516793 ], [ 366993.574866124661639, -29461.146539689736528 ], [ 366684.831943548517302, -29683.454161714078509 ], [ 366340.129074458847754, -29935.782369195181673 ], [ 366339.680838268133812, -29936.101112940901658 ], [ 366021.712943804915994, -30155.690305344171065 ], [ 365748.223972643376328, -30356.883029975000682 ], [ 365748.039790590701159, -30357.01691471635786 ], [ 365351.176671681518201, -30642.0640222029906 ], [ 365173.854918009834364, -30774.233522910886677 ], [ 365173.614105030952487, -30774.410234703565948 ], [ 364717.501241173420567, -31103.900386575500306 ], [ 364717.407960363896564, -31103.967364741129131 ], [ 364485.380201277206652, -31269.562134647589119 ], [ 364272.972895907761995, -31423.435864026763738 ], [ 364272.93285734183155, -31423.464793746938085 ], [ 363927.041867463325616, -31672.737503074054985 ], [ 363640.910862756310962, -31878.566258725310036 ], [ 363640.842872839071788, -31878.61495198979901 ], [ 363348.084810427390039, -32087.358848429474165 ], [ 362980.539453093777411, -32354.218935783981578 ], [ 362980.437933766632341, -32354.292160876135313 ], [ 362671.038778239570092, -32575.990720965648507 ], [ 362669.726242775621358, -32576.855241824738187 ], [ 362380.622818787174765, -32751.388887205699575 ], [ 362380.505536772776395, -32751.459145299311785 ], [ 362041.049346370738931, -32953.237873745740217 ], [ 361722.037313183245715, -33147.739165643433807 ], [ 361721.76337802677881, -33147.903198570842505 ], [ 361713.338544812693726, -33152.857074771760381 ], [ 361394.511168780329172, -33340.300497092386649 ], [ 361092.534338129102252, -33591.720030109143408 ], [ 360699.686406891793013, -33993.722478746902198 ], [ 360691.855231777066365, -33998.667724008846562 ], [ 360362.742713085317519, -34111.242088150123891 ], [ 360362.656164874788374, -34111.271471611369634 ], [ 360077.8841220861068, -34207.227564866654575 ], [ 359796.74041129386751, -34302.718735810602084 ], [ 359498.701230534003116, -34405.129655585878936 ], [ 359498.619689334649593, -34405.157478189481481 ], [ 359150.841705786820967, -34522.986820532976708 ], [ 359150.799723946955055, -34523.000992417721136 ], [ 358761.862131866335403, -34653.815594612511632 ], [ 358430.831772944249678, -34766.381528145248012 ], [ 358425.153719602851197, -34767.431869698855735 ], [ 358419.412246763007715, -34766.81624257448857 ], [ 358414.085956526105292, -34764.585964690661058 ], [ 358273.636132536805235, -34680.12604303034459 ], [ 358135.553523961862084, -34597.081072548346128 ], [ 357709.692806304956321, -34342.275657524507551 ], [ 357275.647239348501898, -34082.382675194756303 ], [ 356908.132207985967398, -34214.448943467767094 ], [ 356908.09767256496707, -34214.461317995024729 ], [ 356521.918798113707453, -34352.43512159986858 ], [ 356607.615300363395363, -34808.386916915944312 ], [ 356664.811660455423407, -35099.798864552401938 ], [ 356664.844466909882613, -35099.969950537284603 ], [ 356708.013774484279566, -35330.522630385421508 ], [ 356708.256266810698435, -35336.192510685505113 ], [ 356706.89642489713151, -35341.702245263113582 ], [ 356704.043737588624936, -35346.608213084589806 ], [ 356699.927891465253197, -35350.515405917605676 ], [ 356694.880277429067064, -35353.109232759816223 ], [ 356350.227544271678198, -35472.057987066378701 ], [ 356350.166406341886614, -35472.078976872777275 ], [ 355950.599283577583265, -35608.536503051589534 ], [ 355950.525139678968117, -35608.561662237960263 ], [ 355606.943942624144256, -35724.399309693297255 ], [ 355195.148438154021278, -35863.971998047803936 ], [ 355195.086554319888819, -35863.9928601835054 ], [ 354892.115410300262738, -35965.579237863857998 ], [ 354700.797692549764179, -36030.534159523078415 ], [ 354700.776810656068847, -36030.541236370292609 ], [ 354222.843244119081646, -36192.218669156121905 ], [ 353905.218853583268356, -36299.603352179256035 ], [ 353899.657463961746544, -36300.639055641397135 ], [ 353894.028537318808958, -36300.076098242774606 ], [ 353888.782412218046375, -36297.959519018775609 ], [ 353884.3388014381635, -36294.458653494235477 ], [ 353776.185072290769313, -36181.033334446627123 ], [ 353630.120439564052504, -36186.23559957723046 ], [ 353620.586477692879271, -36243.085854558972642 ], [ 353581.1373707758612, -36236.470118511351757 ], [ 353593.371092833695002, -36163.521408650791273 ], [ 353595.625317134428769, -36157.093384362146026 ], [ 353599.906144317646977, -36151.794748492327926 ], [ 353605.716987477033399, -36148.240156359504908 ], [ 353612.383773938228842, -36146.841949745976308 ], [ 353783.744546661910135, -36140.738732587567938 ], [ 353789.326832115650177, -36141.328145292303816 ], [ 353794.525459078839049, -36143.445595627425064 ], [ 353798.930914573080372, -36146.92428505186399 ], [ 353904.487878312589601, -36257.626268092426471 ], [ 354210.027099120721687, -36154.327424382201571 ], [ 354687.948545622231904, -35992.654091614371282 ], [ 354879.291639199131168, -35927.690554523003811 ], [ 354879.363314592454117, -35927.666370844643097 ], [ 355182.339360230020247, -35826.078349649302254 ], [ 355594.11914618848823, -35686.510988878289936 ], [ 355594.149567183572799, -35686.500705300997652 ], [ 355937.708882286038715, -35570.670435297943186 ], [ 356337.208371800370514, -35434.236006780200114 ], [ 356665.52179070294369, -35320.926381051060162 ], [ 356625.543778998078778, -35107.417333733661508 ], [ 356568.348736336221918, -34816.012098323313694 ], [ 356568.318452266743407, -34815.854458121655625 ], [ 356479.45276936434675, -34343.04090567005187 ], [ 356479.388764383736998, -34336.010734406816482 ], [ 356481.761510913900565, -34329.392768062723917 ], [ 356486.277812197804451, -34324.004778888534929 ], [ 356492.379595607926603, -34320.512552686857816 ], [ 356894.622377856285311, -34176.799443785545009 ], [ 357271.032723882235587, -34041.536650438822107 ], [ 357276.793723331938963, -34040.383442026803095 ], [ 357282.641240060853306, -34040.954014025752258 ], [ 357288.07064793119207, -34043.199127492465777 ], [ 357730.233252394071314, -34307.952340597381408 ], [ 358156.110665817104746, -34562.767745205674146 ], [ 358156.149571413872764, -34562.791083572890784 ], [ 358294.250446065037977, -34645.847039573876827 ], [ 358426.743718545301817, -34725.522265190775215 ], [ 358749.015931816247758, -34615.934514216416574 ], [ 358749.078987670305651, -34615.913189251310541 ], [ 359138.027126652770676, -34485.095039729661949 ], [ 359485.743326567753684, -34367.28663006498391 ], [ 359783.775329536641948, -34264.878176690828695 ], [ 359783.842495938646607, -34264.855230439876323 ], [ 360065.042707555403467, -34169.344868848296755 ], [ 360065.088520836434327, -34169.329370009552804 ], [ 360349.84017196088098, -34073.380147879724973 ], [ 360674.405339157907292, -33962.361225035783718 ], [ 361064.644078957731836, -33563.02876970442594 ], [ 361066.151301697129384, -33561.636972271066043 ], [ 361370.171433395706117, -33308.516229946195381 ], [ 361372.831975958717521, -33306.645260423807485 ], [ 361693.064142064598855, -33118.375940891106438 ], [ 361701.350752631376963, -33113.50334082532936 ], [ 362020.322237153013702, -32919.026771405398904 ], [ 362020.514414407138247, -32918.911074461284443 ], [ 362360.008256775152404, -32717.109965024206758 ], [ 362648.379894701298326, -32543.018103719474311 ], [ 362957.088905647804495, -32321.814063595589687 ], [ 363324.653116333007347, -32054.940287571243971 ], [ 363324.792544019233901, -32054.839966194358567 ], [ 363617.586489815323148, -31846.070483994804817 ], [ 363903.662432085955516, -31640.281346852738352 ], [ 364249.526348261919338, -31391.028148687772045 ], [ 364461.97099844441982, -31237.127365692682361 ], [ 364462.085983645520173, -31237.044686418143101 ], [ 364694.124645148578566, -31071.442135618824977 ], [ 365150.069898456858937, -30742.073063483312581 ], [ 365327.413491536979564, -30609.88728443591026 ], [ 365327.698505122389179, -30609.67873420156684 ], [ 365724.612579414038919, -30324.595027989322261 ], [ 365998.250420790398493, -30123.292786678506673 ], [ 365998.736758561804891, -30122.946082745740568 ], [ 366316.724100921419449, -29903.343459590683779 ], [ 366661.268320486997254, -29651.131386188044416 ], [ 366661.395235674281139, -29651.03924426067897 ], [ 366970.203806007804815, -29428.684353146851208 ], [ 367322.343460146337748, -29175.261681344414683 ], [ 367641.080516390386038, -28939.960697615661047 ], [ 367778.608291013748385, -28640.986539223878935 ], [ 367990.515984996804036, -28178.840230029301893 ], [ 367990.542247763718478, -28178.783190472913702 ], [ 368144.848442345042713, -27845.028990811249969 ], [ 368144.872807716950774, -27844.976489678010694 ], [ 368262.868481703510042, -27591.686516395733634 ], [ 368414.892963408026844, -27255.81055521192684 ], [ 368414.965169633214828, -27255.652850047619722 ], [ 368534.821139454201329, -26996.847010550849518 ], [ 368753.27106082404498, -26525.147495047003758 ], [ 368887.863013271358795, -26232.92850517880288 ], [ 368887.875095844152384, -26232.902321823596139 ], [ 369023.950336264446378, -25938.580450675224711 ], [ 369117.640314456715714, -25732.329484418511129 ], [ 369117.700247893284541, -25732.198795319709461 ], [ 369366.18357797479257, -25195.463358528657409 ], [ 369366.201281683752313, -25195.425222895992192 ], [ 369470.17837439844152, -24972.062769207841484 ], [ 369611.923617783468217, -24660.918393235300755 ], [ 369611.966839998669457, -24660.82416443288821 ], [ 369818.180443607678171, -24214.314974330463883 ], [ 369972.761190928926226, -23873.211989920182532 ], [ 369972.852680356998462, -23873.013011253064178 ], [ 370145.94142278493382, -23501.931984406248375 ], [ 370329.622431689116638, -23103.903773867932614 ], [ 370499.143875211069826, -22733.555653317431279 ], [ 370499.175158919300884, -22733.487645389926911 ], [ 370673.190311289625242, -22357.051726617344684 ], [ 370835.10966178070521, -22005.81210457493944 ], [ 371027.90829063358251, -21588.27342958036752 ], [ 371191.180049102171324, -21234.692905525127571 ], [ 371359.058948353864253, -20868.708838755665056 ], [ 371545.020866188046057, -20463.289018625189783 ], [ 371545.062138147943188, -20463.199622034375352 ], [ 371701.312693750136532, -20126.932718859832676 ], [ 371702.44476579275215, -20124.833785848899424 ], [ 371875.663632642885204, -19845.00713597176582 ], [ 372067.968952497816645, -19525.735281284531084 ], [ 372068.08887844538549, -19525.538744597353798 ], [ 372270.39555009274045, -19198.24696138796935 ], [ 372270.427284264995251, -19198.195794203842524 ], [ 372506.309413217008114, -18819.141862063013832 ], [ 372506.331454850384034, -18819.106524043971149 ], [ 372706.136378413648345, -18499.512906177162222 ], [ 372866.091207144781947, -18238.969745195590804 ], [ 372935.969298990617972, -17865.219056854646624 ], [ 373001.008739048498683, -17499.540449581370922 ], [ 373001.050414627068676, -17499.313719349622261 ], [ 373071.918055675516371, -17125.885199320491665 ], [ 373149.046049877943005, -16709.650436315932893 ], [ 373249.781727117777336, -16159.217264015098408 ], [ 373402.53979424078716, -15324.54197734533227 ], [ 373402.564033494214527, -15324.411962272288292 ], [ 373472.196110747230705, -14957.652492302160681 ], [ 373484.903148292272817, -14890.745420067034502 ], [ 373533.011814179189969, -14637.328881309447752 ], [ 373597.154842677759007, -14283.651526357416515 ], [ 373597.171461995982099, -14283.56107423013782 ], [ 373606.17320538056083, -14235.194210107780236 ], [ 373659.542589139367919, -13948.524111767135764 ], [ 373718.47544200863922, -13624.908532836781887 ], [ 373720.823535926640034, -13618.505264119823551 ], [ 373725.186711805057712, -13613.263309182604644 ], [ 373731.057582516805269, -13609.792247040377333 ], [ 373737.753433382022195, -13608.495722262361596 ], [ 374110.275570917059667, -13601.073537259253499 ], [ 374457.722170350025408, -13593.04454482453184 ], [ 374457.791025101731066, -13593.043072300290078 ], [ 374895.561614111065865, -13584.434987618091327 ], [ 375299.297261197818443, -13575.961098729456353 ], [ 375299.341266575444024, -13575.960223555159246 ], [ 375708.824279173044488, -13568.26721276968965 ], [ 376121.124226748710498, -13494.840723037570569 ], [ 376322.426001588988584, -13458.103950541792074 ], [ 376527.364808288344648, -13420.707115162433183 ], [ 376527.480820312979631, -13420.686298551498112 ], [ 376902.374710691103246, -13354.556874542933656 ], [ 377305.637176533346064, -13281.893090475556164 ], [ 377305.743570187245496, -13281.874216021280517 ], [ 377683.58264493587194, -13215.897088405195973 ], [ 377757.582871244521812, -13202.323700124516108 ], [ 377777.900649311312009, -13198.587125205927805 ], [ 377814.648720001336187, -13191.851338339451104 ], [ 377982.234050710452721, -13161.100909756054534 ], [ 378048.397561004036106, -13148.971082480677069 ], [ 378064.520052974112332, -13146.008437739779765 ], [ 378237.989178029354662, -13114.184108503266543 ], [ 378238.105995352729224, -13114.163035548630432 ], [ 378800.047455441963393, -13014.514032914603376 ], [ 379318.379592070588842, -12922.291610165550082 ], [ 379892.675124302564654, -12817.895020660094815 ], [ 379892.729907784145325, -12817.885140749995116 ], [ 380439.753043425793294, -12720.018267416844537 ], [ 380741.294926656992175, -12665.817012288815022 ], [ 380987.509427793149371, -12621.554898339025385 ], [ 380987.55331183609087, -12621.547059758624528 ], [ 381093.782788958516903, -12602.694461982648136 ], [ 381533.970739289361518, -12524.565964898556558 ], [ 382074.557656686345581, -12428.008487380413499 ], [ 382415.978256435715593, -12007.536881242464005 ], [ 382416.044752859743312, -12007.455427036893525 ], [ 382759.327131718688179, -11589.20392971165893 ], [ 382759.545781834924128, -11588.942113846283974 ], [ 383114.98006333084777, -11170.640947933277857 ], [ 383459.074150896980427, -10755.460509664750134 ], [ 383768.023722505080514, -10382.582800883608797 ], [ 383768.185638261609711, -10382.389867223691908 ], [ 384032.468647265806794, -10071.475693961047 ], [ 384127.363523844105657, -9761.094237950981551 ], [ 384130.932749503233936, -9754.372571911095292 ], [ 384321.237777621950954, -9518.832906728413946 ], [ 384325.336571240448393, -9515.009631604329115 ], [ 384665.200594162510242, -9277.450756946964248 ], [ 390764.878535165276844, -3140.8671770785013 ], [ 391165.888364209269639, -2648.396733139819389 ], [ 391169.484528508619405, -2644.960032908564699 ], [ 391505.905059604963753, -2395.499171234920595 ], [ 391505.94165311177494, -2395.47210108508034 ], [ 391844.095314881589729, -2145.916853170538616 ], [ 392189.538486206438392, -1888.568699924702514 ], [ 392189.574083144194447, -1888.542242253991617 ], [ 392438.823346747201867, -1703.714693628708801 ], [ 392978.223895014787558, -1120.74774005122913 ], [ 393189.297800912114326, -814.794638747552995 ], [ 393189.336681921151467, -814.73848582315884 ], [ 393406.265879946760833, -502.584104258531397 ], [ 393587.939451812242623, -234.726426635355892 ], [ 393588.071395983977709, -234.534308726947586 ], [ 393818.047079262672924, 96.177084556696869 ], [ 394067.421070899523329, 458.614446452132484 ], [ 394067.478579623100813, 458.697578318380295 ], [ 394277.298324744973797, 760.370704403175409 ], [ 394476.534535732527729, 1048.844360622509157 ], [ 394476.546379762992729, 1048.861490487610581 ], [ 394710.724424275278579, 1387.173434237865422 ], [ 394710.739038929401431, 1387.194518802459925 ], [ 394957.904874951345846, 1743.292707251224329 ], [ 395191.333947745966725, 2079.221886633167287 ], [ 395644.301043248560745, 2733.443745778456105 ], [ 395649.111793502932414, 2738.327882809830498 ], [ 396079.545577181212138, 3046.092650952456097 ], [ 396532.804797818942461, 3371.488405540775148 ], [ 396532.859940162976272, 3371.527850884538566 ], [ 396971.509180250926875, 3684.187179010121781 ], [ 397420.921558716800064, 4004.655858447796163 ], [ 397660.943102061224636, 4178.224506369648225 ], [ 397661.069608433230314, 4178.31524016984531 ], [ 398020.762892327154987, 4434.182823325737445 ], [ 398292.361080500180833, 4627.770344314802969 ], [ 398703.213079668523278, 4922.984470172124929 ], [ 398703.302236970455851, 4923.048163778721573 ], [ 398982.21409293753095, 5121.149940667204646 ], [ 399392.003056665940676, 5415.831646429961438 ], [ 399392.088240826677065, 5415.892565153884789 ], [ 399672.21847282507224, 5615.118862019506196 ], [ 400082.190497987088747, 5908.194589500260918 ], [ 400082.224051631754264, 5908.2185237118847 ], [ 400285.472360819578171, 6052.88219813420892 ], [ 400773.024497304460965, 6402.944734163056637 ], [ 401086.729349058296066, 6647.452041559391546 ], [ 401086.754505074233748, 6647.471616415075914 ], [ 401432.327335811860394, 6915.933177148834147 ], [ 401744.902723161096219, 7160.440068767587036 ], [ 401744.921339210588485, 7160.454613148285716 ], [ 402101.017329565889668, 7438.327401787423696 ], [ 402406.509840603801422, 7677.952719553356474 ], [ 402406.535430830146652, 7677.972758708741821 ], [ 402742.65225510293385, 7940.738291649825442 ], [ 403071.751423520676326, 8197.504886354057817 ], [ 403385.528918093070388, 8442.983325863158825 ], [ 403745.43505676073255, 8725.666183641709722 ], [ 403745.480823480698746, 8725.702023004691 ], [ 404146.512168725894298, 9038.805689939985314 ], [ 404146.535587307007518, 9038.823945940965132 ], [ 404400.060566324857064, 9236.157444459195176 ], [ 404642.234363735886291, 9427.576511265657246 ], [ 404642.349450127629098, 9427.666796053108555 ], [ 404907.863401709124446, 9634.397342460277287 ], [ 404907.883843645744491, 9634.413237413646129 ], [ 405234.591868001851253, 9888.111064131371677 ], [ 405540.633399760292377, 10126.686808616268536 ], [ 405542.029407517344225, 10127.681906690550022 ], [ 415696.297327275737189, 16728.371124301997042 ], [ 419813.928927914996166, 19598.640502616392041 ], [ 420791.422682591713965, 20280.007235893153847 ], [ 420792.091417956107762, 20280.453678955207579 ], [ 420962.615267731947824, 20389.403351865006698 ], [ 421226.391832621302456, 20583.543690627717297 ], [ 421747.937515023164451, 20968.212730465111235 ], [ 421748.239471029897686, 20968.431125839986635 ], [ 422204.333827501279302, 21291.881007626787323 ], [ 422428.383523512049578, 21450.693365037757758 ], [ 422859.578642328677233, 21766.644541254736396 ], [ 422861.580256699875463, 21767.935377331778 ], [ 423378.977883546729572, 22059.524496657642885 ], [ 423379.191172070102766, 22059.642990994692809 ], [ 423641.319076580752153, 22203.18506496194459 ], [ 423985.049325573025271, 22397.887583493429702 ], [ 424328.01417033164762, 22592.362355330191349 ], [ 424328.274151480232831, 22592.507229323404317 ], [ 424808.445500709465705, 22855.418831112063344 ], [ 425279.6698940776987, 23119.667085986347956 ], [ 425279.828441121499054, 23119.755052043357864 ], [ 425537.656914676364977, 23261.280397759204789 ], [ 425898.457233739609364, 23463.275720598376211 ], [ 426337.239335074904375, 23708.600427862245851 ], [ 426337.313603708462324, 23708.641744851182011 ], [ 426615.679114980797749, 23862.72795719617352 ], [ 426866.881180975586176, 24006.445098861982842 ], [ 426867.111490665236488, 24006.574850455930573 ], [ 427336.221510653907899, 24266.792400045658724 ], [ 427589.218616815574933, 24411.693994930930785 ], [ 427589.327853504684754, 24411.75610424898332 ], [ 427939.149349148035981, 24609.204437515905738 ], [ 427939.268001581367571, 24609.270877155620838 ], [ 428296.222411232825834, 24807.557116119627608 ], [ 428612.59172794315964, 24989.142190923696035 ], [ 428919.13289894151967, 25409.639234778973332 ], [ 429238.182472117303405, 25868.007907170140243 ], [ 429544.850748903292697, 26308.604933463811903 ], [ 429724.58419860037975, 26569.817219684970041 ], [ 429724.666364160191733, 26569.935716455569491 ], [ 429884.442765618616249, 26798.595802515574178 ], [ 429884.456145261705387, 26798.614926687558182 ], [ 430175.040587862953544, 27213.445814066293678 ], [ 430175.149794808705337, 27213.600157397973817 ], [ 430473.030488579010125, 27630.405593331728596 ], [ 430624.710925483959727, 27844.66860111011556 ], [ 430891.335401993535925, 28232.49295537996295 ], [ 430891.416473296878394, 28232.609984958056884 ], [ 431101.561869312892668, 28533.668288845670759 ], [ 431101.636897119227797, 28533.775031577752088 ], [ 431292.373448369093239, 28803.264871349958412 ], [ 431471.390245048562065, 29055.677808319505857 ], [ 431525.423620717599988, 29139.171142065089953 ], [ 431542.214264603739139, 29128.304943194783846 ], [ 431525.857268063817173, 29139.813577527027519 ], [ 431769.945367660257034, 29486.731212171733205 ], [ 431769.957249689265154, 29486.748081369740248 ], [ 431993.316492975922301, 29803.509288288372773 ], [ 432105.748542294837534, 30036.748704123554489 ], [ 432291.260559509566519, 30421.637535636360553 ], [ 432291.30484693456674, 30421.728827629853185 ], [ 432411.404908586060628, 30667.706511086093087 ], [ 432580.163452107110061, 31023.653580420967046 ], [ 432580.172879496996757, 31023.673436563818541 ], [ 432710.317784816434141, 31297.398717723401205 ], [ 432710.380559518816881, 31297.529522066852223 ], [ 432844.10821400169516, 31573.607641550741391 ], [ 433080.778384707227815, 32062.387315535226662 ], [ 433188.418785780842882, 32290.950103396036866 ], [ 433188.480449750786647, 32291.07982960296431 ], [ 433377.966355932934675, 32686.048540587642492 ], [ 433378.002051923191175, 32686.12255584443119 ], [ 433556.752548262476921, 33054.822067708846589 ], [ 433684.165769675164483, 33325.688116176133917 ], [ 433684.196768513298593, 33325.753707068157382 ], [ 433907.182099304627627, 33795.3650051399527 ], [ 433907.306568921951111, 33795.622376744249777 ], [ 434051.262660872365814, 34087.938005754629557 ], [ 434051.352450722712092, 34088.118041664092743 ], [ 434146.24137359589804, 34276.005913069457165 ], [ 434296.073357626039069, 34591.52122374400642 ], [ 434415.107183412765153, 34853.889739548969374 ], [ 434415.343474028224591, 34854.391921522605116 ], [ 434660.865090539387893, 35357.935495278739836 ], [ 434660.877227780409157, 35357.960344083869131 ], [ 434844.42728706280468, 35733.088011115716654 ], [ 434986.198891405947506, 36027.283398405837943 ], [ 434986.236071065999568, 36027.360132573427109 ], [ 435211.69748143927427, 36490.167538672874798 ], [ 435340.448281904973555, 36764.118058390464284 ], [ 435343.680574876139872, 36768.987729927270266 ], [ 435348.18267615622608, 36772.714994714151544 ], [ 435353.570090327761136, 36774.981531118377461 ], [ 435485.048034621344414, 36808.77564380531112 ], [ 435485.576607283495832, 36808.90386803108413 ], [ 436051.65298463095678, 36938.101775747229112 ], [ 436342.844767487084027, 37008.619531799588003 ], [ 436711.159471400023904, 37097.83336292529566 ], [ 436711.233950895490125, 37097.851252556320105 ], [ 436997.39923253696179, 37166.007490691481507 ], [ 437319.385650566546246, 37245.126296825168538 ], [ 437721.091090044006705, 37343.52298975494341 ], [ 438137.704945492907427, 37448.436554163563414 ], [ 438138.0872702182387, 37448.528844904445577 ], [ 438533.104991499858443, 37539.782727658719523 ], [ 438905.444619791291188, 37632.21807682979852 ], [ 438905.47425918513909, 37632.225410956867563 ], [ 439354.977363568381406, 37743.088756008764904 ], [ 439355.607515447714832, 37743.233410166169051 ], [ 439608.877900135703385, 37797.078653809476236 ], [ 440053.76570069976151, 37912.572383158119919 ], [ 440054.14399381633848, 37912.666662965493742 ], [ 440386.64683211123338, 37992.100531890791899 ], [ 440386.831508113420568, 37992.143725820431428 ], [ 440807.455840415146668, 38088.42249947705568 ], [ 441093.686222819145769, 38160.857843868376222 ], [ 441374.839535836246796, 38432.788058397447458 ], [ 441699.519480463699438, 38752.899699791851162 ], [ 441699.864570327103138, 38753.231879456914612 ], [ 441977.451553467079066, 39014.102554793302261 ], [ 442314.58044968068134, 39331.753411673584196 ], [ 442526.350282509170938, 39539.711352746286138 ], [ 442526.731968746636994, 39540.076394900941523 ], [ 442732.828988260531332, 39732.040402059137705 ], [ 443010.817430782772135, 40002.200330687897804 ], [ 443163.286175480752718, 40152.739413177296228 ], [ 443168.034409563348163, 40156.211850187544769 ], [ 443173.587483572599012, 40158.152704314314178 ], [ 443179.465007382910699, 40158.394074471470958 ], [ 443524.566575226373971, 40121.482430489828403 ], [ 443652.512120306375436, 40464.896219353206106 ], [ 443730.960896475357004, 40687.374933747414616 ], [ 443735.826552918180823, 40695.010727755121479 ], [ 443798.490657812450081, 40756.400257069901272 ], [ 443891.663824183051474, 41167.168520170402189 ], [ 443984.770597996073775, 41577.621815832098946 ], [ 444040.055962796323001, 41821.302951414167183 ], [ 444126.829530020884704, 42203.856912794428354 ], [ 444209.507371290703304, 42568.284289765251742 ], [ 444304.651389131206088, 42987.734042950054572 ], [ 444396.167108991649002, 43391.168072470027255 ], [ 444464.360457106784452, 43691.75098711445753 ], [ 444479.205401583458297, 43958.076155135982845 ], [ 444479.211583366442937, 43958.182008656207472 ], [ 444506.690077534527518, 44408.208562850159069 ], [ 444533.579034928232431, 44857.638238526778878 ], [ 444534.971348547085654, 44863.865470657954575 ], [ 444538.25414916902082, 44869.337232467973081 ], [ 444735.261157863365952, 45102.950373819963716 ], [ 444735.480630088364705, 45103.20622014295077 ], [ 444950.659926639462356, 45349.812048545041762 ], [ 445226.133257500303444, 45668.758527872210834 ], [ 445226.21848551009316, 45668.85656054357969 ], [ 445448.285847361199558, 45922.618251554195012 ], [ 445452.77217929949984, 45926.429415371996583 ], [ 445458.17371257772902, 45928.769411558037973 ], [ 445464.022510424721986, 45929.435525400891493 ], [ 445853.521519445523154, 45916.069990654927096 ], [ 445853.850889358436689, 45916.055969803732296 ], [ 446230.445969506690744, 45896.91419742519065 ], [ 446704.930247828888241, 45876.284981695614988 ], [ 446711.93832476058742, 45874.687438238826871 ], [ 446717.929008994193282, 45870.715412333753193 ], [ 446722.128524473344442, 45864.881943630047317 ], [ 446901.142747994221281, 45487.845656114492158 ], [ 447091.186096901772544, 45096.920971486142662 ], [ 447260.964678271964658, 44751.565235324320383 ], [ 447261.099654545716476, 44751.285196546050429 ], [ 447423.021575931226835, 44408.55671657917992 ], [ 447711.765174494939856, 44383.34092130397039 ], [ 447981.040771672036499, 44511.954286342515843 ], [ 448082.654898526554462, 44807.794191349996254 ], [ 448174.937138606852386, 45117.057564755123167 ], [ 448175.105758416291792, 45117.594924035831355 ], [ 448279.133605985960457, 45433.472293368839019 ], [ 448279.146109244378749, 45433.510132204159163 ], [ 448383.630184718756936, 45748.65788242292183 ], [ 448386.782051248359494, 45754.584783900536422 ], [ 448391.717487178102601, 45759.134937296781573 ], [ 448397.880485744855832, 45761.795740260531602 ], [ 448781.119492668600287, 45855.15228630866477 ], [ 448786.868505857710261, 45855.694726275774883 ], [ 448792.532866803987417, 45854.572046964458423 ], [ 448797.640374642098323, 45851.877838833992428 ], [ 448801.765249721880537, 45847.836700461892178 ], [ 448872.19738866755506, 45755.338021158473566 ], [ 448872.337051813607104, 45755.152374034711102 ], [ 448886.65711644210387, 45735.885523569646466 ], [ 448854.553383407997899, 45712.0244606160486 ], [ 448840.302611234656069, 45731.198081936810922 ], [ 448777.869971019099467, 45813.191002382074657 ], [ 448418.111490860756021, 45725.55428348777059 ], [ 448317.120089138799813, 45420.941232172415766 ], [ 448213.186567599303089, 45105.350280937644129 ], [ 448120.867978266789578, 44795.96509110990155 ], [ 448120.618320908746682, 44795.186826964221837 ], [ 448016.14612688543275, 44491.025930123323633 ], [ 448013.786636246426497, 44486.302185302447469 ], [ 448010.27316448779311, 44482.360551452169602 ], [ 448005.85060903406702, 44479.475769923672487 ], [ 447724.080953155644238, 44344.8949018903877 ], [ 447719.026800245221239, 44343.262447779277863 ], [ 447713.721185525879264, 44343.017865447363874 ], [ 447408.103083345515188, 44369.707300417743681 ], [ 447401.423016869579442, 44371.490271589289478 ], [ 447395.749192037212197, 44375.441219082320458 ], [ 447391.75966317608254, 44381.087982207114692 ], [ 447224.999283988494426, 44734.057677654265717 ], [ 447055.269812596146949, 45079.31351657101186 ], [ 447055.23105473065516, 45079.392797326072468 ], [ 446865.128115565690678, 45470.440060843422543 ], [ 446865.048283767944667, 45470.606220279179979 ], [ 446691.160226712177973, 45836.845875353057636 ], [ 446228.63524393964326, 45856.955135208139836 ], [ 446228.48870605637785, 45856.962044790678192 ], [ 445851.984996814106125, 45876.099172920854471 ], [ 445472.136730027967133, 45889.133545513199351 ], [ 445256.36280493211234, 45642.563515357061988 ], [ 444980.898881928646006, 45323.627928565249022 ], [ 444980.832594978099223, 45323.551571751544543 ], [ 444765.730872610409278, 45077.034647096559638 ], [ 444573.11125527828699, 44848.624124094319995 ], [ 444546.617946517653763, 44405.807432113564573 ], [ 444546.616466914303601, 44405.782953350695607 ], [ 444519.140456634107977, 43955.797078806681384 ], [ 444504.205074036261067, 43687.849409073569404 ], [ 444503.740422999602742, 43684.537520836231124 ], [ 444435.175992581003811, 43382.318948152351368 ], [ 444343.660403280809987, 42978.885494194022613 ], [ 444248.516325667558704, 42559.43547749640129 ], [ 444165.838506807980593, 42195.008199317504477 ], [ 444079.064928346604574, 41812.454188398136466 ], [ 444023.779488516855054, 41568.772722067078575 ], [ 443930.672869757167064, 41158.320109951055201 ], [ 443836.197267108364031, 40741.809855796374904 ], [ 443834.153844385175034, 40736.481591863463109 ], [ 443830.688826315687038, 40731.947319844417507 ], [ 443767.138807609677315, 40669.689896030686214 ], [ 443690.176967924868222, 40451.428095316274266 ], [ 443690.056732394092251, 40451.096465211187024 ], [ 443556.626456547877751, 40092.961318350273359 ], [ 443553.350315106858034, 40087.262268934573513 ], [ 443548.403438931389246, 40082.933217873585818 ], [ 443542.32024235650897, 40080.441835442892625 ], [ 443535.757897168572526, 40080.057267349373433 ], [ 443184.641044209245592, 40117.612298911182734 ], [ 443038.864702511345968, 39973.680919589263794 ], [ 443038.751653831161093, 39973.570181482675252 ], [ 442760.554365909832995, 39703.207288811252511 ], [ 442760.247061264875811, 39702.914910508072353 ], [ 442554.188092392229009, 39510.986344685145014 ], [ 442342.459298841189593, 39303.068704176170286 ], [ 442342.161553220357746, 39302.782298435340635 ], [ 442004.872871580242645, 38984.980887929377786 ], [ 442004.853993088298012, 38984.963123247696785 ], [ 441727.432098894263618, 38724.247595189204731 ], [ 441402.854423504555598, 38404.236784086606349 ], [ 441402.717207694076933, 38404.102790268523677 ], [ 441117.664019528194331, 38128.400634109217208 ], [ 441113.493389501643833, 38125.30507446401316 ], [ 441108.666300280077849, 38123.387822789729398 ], [ 440817.047674525761977, 38049.588894073545816 ], [ 440816.603511856752448, 38049.481874193959811 ], [ 440395.848927403567359, 37953.173286481323885 ], [ 440063.627930740243755, 37873.806748624039756 ], [ 439618.497885578952264, 37758.250132111679704 ], [ 439617.631470904918388, 37758.045677802605496 ], [ 439364.241848376521375, 37704.175084213318769 ], [ 438915.067473217728548, 37593.392815401130065 ], [ 438542.584396002814174, 37500.921854250220349 ], [ 438542.267244743008632, 37500.845859431930876 ], [ 438147.282254135527182, 37409.599537860209239 ], [ 437730.796293532126583, 37304.718180503601616 ], [ 437730.67056486196816, 37304.686951620358741 ], [ 437328.923470584442839, 37206.280060938683164 ], [ 437006.874873415043112, 37127.14597608816257 ], [ 437006.73622381471796, 37127.112430835586565 ], [ 436720.538814432919025, 37058.948540808109101 ], [ 436352.260853016749024, 36969.743609514160198 ], [ 436060.939290397218429, 36899.194424741821422 ], [ 436060.68221179471584, 36899.133962184409029 ], [ 435494.742253725416958, 36769.967189993454667 ], [ 435372.645341576600913, 36738.584308019962918 ], [ 435247.839267237053718, 36473.027210079024371 ], [ 435247.718574988713954, 36472.775001064466778 ], [ 435022.214608614332974, 36009.880239738893579 ], [ 434880.435502615990117, 35715.669285492636845 ], [ 434880.383160309051163, 35715.56149495425052 ], [ 434696.812845636799466, 35340.392431274718547 ], [ 434451.418918652576394, 34837.110737680624879 ], [ 434332.427727432339452, 34574.836194894327491 ], [ 434332.280917841475457, 34574.519959821096563 ], [ 434182.269852573983371, 34258.62754093028343 ], [ 434182.055947765824385, 34258.190880296308023 ], [ 434087.10276596195763, 34070.175770923218806 ], [ 433943.254270759003703, 33778.078626663897012 ], [ 433720.345813904481474, 33308.629226547949656 ], [ 433592.898048243485391, 33037.689740929257823 ], [ 433592.796835543471389, 33037.477813785313629 ], [ 433414.013034712523222, 32668.709606448384875 ], [ 433224.575965398922563, 32273.842692137695849 ], [ 433116.920153912040405, 32045.247181925489713 ], [ 433116.827082659001462, 32045.052292103013315 ], [ 432880.109224777843338, 31556.17413286343799 ], [ 432746.411318602680694, 31280.157427704845759 ], [ 432616.302282553922851, 31006.50758804018551 ], [ 432447.499243689759169, 30650.466668719062 ], [ 432447.399647842394188, 30650.259679359780421 ], [ 432327.271453428489622, 30404.224377017864754 ], [ 432141.781262753647752, 30019.380829856752825 ], [ 432028.630580875324085, 29784.650616291335609 ], [ 432026.959636810934171, 29781.809675698343199 ], [ 431802.65342407108983, 29463.705505835849181 ], [ 431558.79431034764275, 29117.113324327005103 ], [ 431504.74051680037519, 29033.588440512521629 ], [ 431487.949872914236039, 29044.454639382827736 ], [ 431504.263521598419175, 29032.884640825799579 ], [ 431325.017527436953969, 28780.148552538408694 ], [ 431134.324253004451748, 28510.719858165462938 ] ] ] ] } }
]
}
