{
"type": "FeatureCollection",
"name": "Kawanda_Masaka_220_Line_Position",
"crs": { "type": "name", "properties": { "name": "urn:ogc:def:crs:EPSG::32636" } },
"features": [
{ "type": "Feature", "properties": { "id": 1, "Tower Type": "power line" }, "geometry": { "type": "MultiLineString", "coordinates": [ [ [ 448856.883732052519917, 45740.505243152932962 ], [ 448790.269196250243112, 45835.530804451766016 ], [ 448397.376164139190223, 45742.228802593395812 ], [ 448298.281802863464691, 45428.323435096608591 ], [ 448195.770870614855085, 45111.024564348190324 ], [ 448100.093211869709194, 44800.512500741009717 ], [ 447994.166529652196914, 44493.394595808873419 ], [ 447719.137041073292494, 44362.755387282639276 ], [ 447404.827521666593384, 44388.225781763496343 ], [ 447242.567896536376793, 44741.173611962782161 ], [ 447075.183390461897943, 45085.637827788865252 ], [ 446883.887115329271182, 45479.311444018581824 ], [ 446701.131398500176147, 45859.410220741570811 ], [ 446229.666058852744754, 45876.407105168997077 ], [ 445855.568788330303505, 45896.791910893538443 ], [ 445460.972363069886342, 45910.390873490265221 ], [ 445242.305173078610096, 45655.880867385087186 ], [ 444965.554556713614147, 45336.895024318553624 ], [ 444748.595560844638385, 45085.778346423139737 ], [ 444553.844656429020688, 44856.718937523866771 ], [ 444526.485493789601605, 44405.365020999364788 ], [ 444497.418568266963121, 43957.404830322804628 ], [ 444483.736554450239055, 43687.610380164413073 ], [ 444417.098064620571677, 43388.973047061008401 ], [ 444324.829980351903941, 42983.437151402882591 ], [ 444229.144488360034302, 42559.236278044765641 ], [ 444145.42027659737505, 42196.1203581943264 ], [ 444059.986867912404705, 41814.339371240370383 ], [ 444005.309551524173003, 41569.999497742661333 ], [ 443913.041987274424173, 41162.766367589239962 ], [ 443819.065664503315929, 40743.655452416925982 ], [ 443749.024503778142389, 40675.786335461416456 ], [ 443673.850111184641719, 40456.899860114768671 ], [ 443538.880122433765791, 40102.270489544331213 ], [ 443176.737539899244439, 40137.924263258559222 ], [ 443028.113204390916508, 39990.308551198562782 ], [ 442744.531303999130614, 39713.741364424786298 ], [ 442539.532892182294745, 39525.404787769606628 ], [ 442329.408457454235759, 39315.009633180059609 ], [ 441991.160385592665989, 38997.721206981783325 ], [ 441714.411889107315801, 38739.818272030337539 ], [ 441386.412447814363986, 38415.741585203912109 ], [ 441099.413157059112564, 38139.173755273593997 ], [ 440809.008561900584027, 38066.226077374398301 ], [ 440387.068201162968762, 37972.923763013030111 ], [ 440057.373206113406923, 37891.494161736911337 ], [ 439613.223868846427649, 37776.134303039805673 ], [ 439358.692732140945736, 37723.546737566248339 ], [ 438909.418273669667542, 37611.580906508213957 ], [ 438540.432239209592808, 37521.669446001767938 ], [ 438138.989067394810263, 37428.366189908199885 ], [ 437727.295421319082379, 37323.185663779986498 ], [ 437322.434741682896856, 37223.095295743834868 ], [ 436999.571040341630578, 37145.059173170557187 ], [ 436715.997407203307375, 37075.505008645050111 ], [ 436350.426633158000186, 36990.68402453741146 ], [ 436054.894577246566769, 36916.04004871876532 ], [ 435489.455173985217698, 36790.506494422785181 ], [ 435357.917345103633124, 36753.183568469125021 ], [ 435228.073790725902654, 36478.301712385116844 ], [ 435002.556735683989245, 36011.681349187630985 ], [ 434864.171285507327411, 35724.921770661312621 ], [ 434676.240915074653458, 35343.141307467645674 ], [ 434431.931561166536994, 34847.674833619195851 ], [ 434314.046521719719749, 34581.275866435236821 ], [ 434163.701695190567989, 34263.97307674610056 ], [ 434069.736945526557975, 34079.021473463981238 ], [ 433921.10148483410012, 33780.383748710439249 ], [ 433700.709736687305849, 33313.761404431206756 ], [ 433570.866680286708288, 33040.575139852335269 ], [ 433396.603787860251032, 32675.761072318084189 ], [ 433205.256563183036633, 32278.707504036141472 ], [ 433099.332018305372912, 32054.72836428323717 ], [ 432861.85664921021089, 31562.652989167065243 ], [ 432728.597121050697751, 31286.072531328445621 ], [ 432598.754439443931915, 31014.582356552567944 ], [ 432429.617011724389158, 30654.857566366492392 ], [ 432310.025447305291891, 30410.516336778371624 ], [ 432125.512483107449953, 30027.036016874528286 ], [ 432007.629533097206149, 29787.785053097089985 ], [ 431782.12138602102641, 29470.48389610448794 ], [ 431541.237304966780357, 29124.336694543879275 ], [ 431486.568600040511228, 29046.283878538361023 ], [ 431308.895261555851903, 28791.763712101310375 ], [ 431115.846582755155396, 28520.275562573144271 ], [ 430907.421983336913399, 28219.941372684403177 ], [ 430639.203412674891297, 27833.069931137531967 ], [ 430488.864401130354963, 27617.575663453779271 ], [ 430189.895289705193136, 27200.161663297312771 ], [ 429902.884303763974458, 26786.140465374021005 ], [ 429740.586735025863163, 26558.768233158174553 ], [ 429561.204747598967515, 26297.459382960863877 ], [ 429251.984486966975965, 25849.501101427591493 ], [ 428935.931003046163823, 25399.845837313816446 ], [ 428630.128383283969015, 24975.642696617327601 ], [ 428302.128450038377196, 24790.698560556713346 ], [ 427943.378304856945761, 24588.786931311362423 ], [ 427594.877825182804372, 24390.268415083166474 ], [ 427347.169096663361415, 24251.135827002646693 ], [ 426873.959804705984425, 23988.141279050498269 ], [ 426624.542070540192071, 23840.524144308656105 ], [ 426354.624641115660779, 23692.907798483749502 ], [ 425907.03960800205823, 23445.183353978412924 ], [ 425543.162848385167308, 23241.573833118360199 ], [ 425288.6198688687291, 23100.743921959805448 ], [ 424817.116874002967961, 22834.354127104863437 ], [ 424337.072213925421238, 22574.751874505243904 ], [ 423991.986023918841965, 22377.928231970359775 ], [ 423646.899820935504977, 22186.195048450223112 ], [ 423382.105776735290419, 22038.577301831752266 ], [ 422871.308990820252802, 21750.128238788191084 ], [ 422437.384603896469343, 21432.828510195766285 ], [ 422208.463852521032095, 21268.239869856333826 ], [ 421755.747444604407065, 20949.243362034852908 ], [ 421236.40371396089904, 20565.76723931444576 ], [ 420969.898272579768673, 20370.635428682933707 ], [ 420800.770296709379181, 20260.344196631915111 ], [ 419824.437821436382364, 19577.382876061485149 ], [ 419823.583791756012943, 19580.776699857822678 ], [ 419116.318411898275372, 19088.703990445468662 ], [ 418581.597809013677761, 18714.558163777466689 ], [ 418170.733947452099528, 18428.645904173299641 ], [ 417632.595801439369097, 18053.650558135836036 ], [ 417095.311338183993939, 17678.654488531014067 ], [ 416570.839250555611216, 17312.990246506717085 ], [ 415820.006251466635149, 16789.09654599444184 ], [ 415345.076740945223719, 16475.184724801780249 ], [ 414866.730213990027551, 16162.969400194000627 ], [ 414569.471834968659095, 15969.531405566705871 ], [ 413571.776072025415488, 15324.736804373073028 ], [ 413095.136426064767875, 15012.519412806674154 ], [ 412232.40070129383821, 14450.866239498653158 ], [ 411385.039224911015481, 13899.392310493780315 ], [ 410351.461536925751716, 13225.743203622441797 ], [ 409210.253142859670334, 12487.610927174064273 ], [ 408383.388055995688774, 11948.008443907967376 ], [ 407279.760649208910763, 11231.929540183149584 ], [ 406423.850146029202733, 10680.444881990442809 ], [ 406138.546216879622079, 10490.394088823046332 ], [ 405547.437255478580482, 10105.201451182076198 ], [ 405246.756519571703393, 9874.423538799886956 ], [ 404920.449278077110648, 9616.494704056511182 ], [ 404653.936538632609881, 9409.472710488733355 ], [ 404414.758341594366357, 9222.813302514708994 ], [ 404158.495937407016754, 9024.275391022769327 ], [ 403751.892665248480625, 8705.256626050708292 ], [ 403391.416470358381048, 8421.87243336580832 ], [ 403080.484335593006108, 8180.910747958123466 ], [ 402752.46784544136608, 7924.676420120298644 ], [ 402415.909117803443223, 7661.654026386511759 ], [ 402111.810219444218092, 7422.388104248299896 ], [ 401751.333323842787649, 7140.698758789857493 ], [ 401443.817323326948099, 6898.03823178777111 ], [ 401098.71596808481263, 6629.923485234532563 ], [ 400780.949284050613642, 6385.565414943951509 ], [ 400295.75722492049681, 6034.300471329267566 ], [ 400092.454888639855199, 5891.758039267008826 ], [ 399682.433125171228312, 5599.884924211582074 ], [ 399402.251461344538257, 5401.343019476204063 ], [ 398990.520797750388738, 5102.681065907461743 ], [ 398713.755684194446076, 4904.138453897892759 ], [ 398300.316277023521252, 4610.566459950815442 ], [ 398028.676179355243221, 4415.417083918283424 ], [ 397673.322949903435074, 4160.874040213674562 ], [ 397432.434357930556871, 3987.784508674707467 ], [ 396976.283436283993069, 3663.665368820134063 ], [ 396540.633386109315325, 3351.424213033038086 ], [ 396091.315595787542406, 3027.303574419524466 ], [ 395659.081897030409891, 2718.454981695147126 ], [ 395206.344822739774827, 2066.813694882142954 ], [ 394975.705377401784062, 1732.507542141860995 ], [ 394726.273270967823919, 1376.140151038541035 ], [ 394492.217246185755357, 1035.045203424230522 ], [ 394294.038548729615286, 748.25361010715244 ], [ 394083.900918914354406, 449.582763957275063 ], [ 393836.177843760233372, 84.728725312588708 ], [ 393600.413979709614068, -249.579816672445929 ], [ 393424.445413632027339, -512.61473556490057 ], [ 393205.7661443578545, -826.559978100571811 ], [ 392995.629179518495221, -1133.717556361409834 ], [ 392537.769435813825112, -1624.152720400484213 ], [ 392448.93098116805777, -1717.488276144624933 ], [ 392201.208001307502855, -1904.159877183460594 ], [ 391856.104140951181762, -2162.106517017584338 ], [ 391516.125448946258985, -2414.962584720974519 ], [ 391181.27191690960899, -2661.03104893163254 ], [ 390779.790839864115696, -3154.864054397967266 ], [ 390410.769379231322091, -3528.209941806498591 ], [ 389607.80609829374589, -4337.694355911113234 ], [ 389014.980050093552563, -4929.960999919146161 ], [ 388698.920158867316786, -5250.702139574957982 ], [ 388135.137651315308176, -5817.516008759234865 ], [ 387868.622264697100036, -6082.25609641454048 ], [ 387026.365695600630715, -6932.48153598011686 ], [ 386269.530845760193188, -7692.766544162703212 ], [ 385683.539241836057045, -8281.650309830458355 ], [ 385003.584218629461247, -8967.269638239129563 ], [ 384672.148850852739997, -9298.200831786383787 ], [ 384328.75168199383188, -9537.492780245320318 ], [ 384145.951089535374194, -9769.992551142195225 ], [ 384048.576819844776765, -10083.948165241376046 ], [ 383782.063460659468547, -10397.909015755385553 ], [ 383474.548543061013333, -10771.268223769131509 ], [ 383131.156909021781757, -11181.964313893407962 ], [ 382772.389436857949477, -11601.14701579001121 ], [ 382428.998669231135864, -12023.724191837420221 ], [ 382090.733438231400214, -12441.210906008920574 ], [ 381533.770341690164059, -12546.448598640652563 ], [ 380987.057037530583329, -12643.201060596284151 ], [ 380440.343041189247742, -12743.348048962889152 ], [ 379893.627964861865621, -12836.707202919627889 ], [ 379319.576585183269344, -12943.64434100375729 ], [ 378803.612786115845665, -13035.306056828638248 ], [ 378241.51887156162411, -13133.758254635100457 ], [ 377689.67532258486608, -13237.301701537820918 ], [ 377306.97194859420415, -13303.503051643501749 ], [ 376907.183315614936873, -13376.493614298202374 ], [ 376529.604425944271497, -13437.603931036095673 ], [ 376122.980986899754498, -13513.98938223638288 ], [ 375702.688791283988394, -13586.981481544940834 ], [ 375299.47857924218988, -13595.483806538228237 ], [ 374894.559345125861, -13603.986279436841869 ], [ 374455.469038127048407, -13610.793183498504732 ], [ 374110.347260551294312, -13620.990366631811412 ], [ 373737.888584233238362, -13629.491681741319553 ], [ 373681.521191043662839, -13955.336407143018732 ], [ 373618.320244656177238, -14286.272842049862447 ], [ 373555.120731693168636, -14640.968755595185939 ], [ 373490.211574017826933, -14963.42005945496021 ], [ 373423.596006162231788, -15323.207708623473081 ], [ 373266.452689848490991, -16161.581506541318959 ], [ 373170.803759410395287, -16718.234563639776752 ], [ 373090.525060974818189, -17135.725040147590335 ], [ 373022.203822148090694, -17502.302101824698184 ], [ 372957.299977608723566, -17867.182032770815567 ], [ 372885.563413556083106, -18249.033505252853502 ], [ 372719.851285746437497, -18513.790727500250796 ], [ 372525.097519558970816, -18832.857214361043589 ], [ 372284.217444124398753, -19214.719715467450442 ], [ 372084.338541018019896, -19532.090328055975988 ], [ 371893.003097386215813, -19857.946350249530951 ], [ 371717.041706740914378, -20136.282832295251865 ], [ 371563.295448096352629, -20475.714046456934739 ], [ 371371.966134753252845, -20881.335305764703662 ], [ 371207.971134528168477, -21246.224612856873136 ], [ 371047.392673995927908, -21597.537204014184681 ], [ 370850.940181391662918, -22018.434229414531728 ], [ 370693.779373185359873, -22366.353183628783881 ], [ 370517.82698317168979, -22741.427672874491691 ], [ 370345.291972715582233, -23114.805237235203094 ], [ 370159.090989289863501, -23513.640984219597158 ], [ 369988.26540148712229, -23887.019314724351716 ], [ 369836.231944402039517, -24231.545627669642272 ], [ 369631.241476709546987, -24669.417954691729392 ], [ 369487.749378948123194, -24986.790501785973902 ], [ 369385.254445439437404, -25204.029990830724273 ], [ 369135.851644524838775, -25743.734564645688806 ], [ 369043.606916209333576, -25942.305386394826201 ], [ 368905.240272824827116, -26242.707535227607877 ], [ 368770.290711057954468, -26539.715428361978411 ], [ 368553.345972789917141, -27004.745976301139308 ], [ 368433.770874391542748, -27266.113604450536513 ], [ 368281.740329120191745, -27602.157858787795703 ], [ 368163.873505445197225, -27855.04019199727918 ], [ 368008.426658044743817, -28192.782506737072254 ], [ 367800.025840489310212, -28644.237681017741124 ], [ 367656.537272895919159, -28956.52277990759103 ], [ 367331.935648678627331, -29194.151860354762903 ], [ 366979.998800706700422, -29448.75549695229347 ], [ 366674.189323281985708, -29667.715477399411611 ], [ 366327.378185452776961, -29924.017015271023411 ], [ 366009.608883285196498, -30144.67643121553192 ], [ 365732.842661788454279, -30343.26943755989123 ], [ 365339.903048347798176, -30626.731769440335484 ], [ 365162.226587863173336, -30760.824185869078065 ], [ 364704.366104727319907, -31088.420301136033231 ], [ 364475.435910113039427, -31253.067369686214079 ], [ 364260.173128112452105, -31407.530402794956899 ], [ 363916.777839320944622, -31655.350547148515034 ], [ 363629.761014909832738, -31864.130803745916637 ], [ 363334.201494800974615, -32074.609610961240833 ], [ 362970.304510344169103, -32334.313891355101077 ], [ 362661.07800211024005, -32560.069721306601423 ], [ 362370.640076970099472, -32734.90924790416102 ], [ 362028.948046309757046, -32938.606680570206663 ], [ 361712.882982607465237, -33128.724476908384531 ], [ 361383.150143274920993, -33327.330151933871093 ], [ 361075.634590229194146, -33576.848787159113272 ], [ 360682.708242085878737, -33982.517487844190327 ], [ 360351.256420813966542, -34094.5696365900003 ], [ 360071.059461618715432, -34186.249994689060259 ], [ 359792.571899408940226, -34286.416262169172114 ], [ 359490.163919031096157, -34386.585651126428274 ], [ 358750.374475417309441, -34636.159832064724469 ], [ 358420.629436892573722, -34746.516643604802084 ], [ 358147.234241862199269, -34581.923190161862294 ], [ 357726.888065144536085, -34324.002069619935355 ], [ 357279.202464047819376, -34055.900496146365185 ], [ 356899.909454655018635, -34195.115860024001449 ], [ 356493.27881163766142, -34337.729442089774238 ], [ 356599.272394241765141, -34826.508006862910406 ], [ 356650.565925253904425, -35111.629985964187654 ], [ 356695.018480186234228, -35342.442575971974293 ], [ 356349.894063359999564, -35451.106343439008924 ], [ 355950.09777019941248, -35590.326955563316005 ], [ 355601.556327616621275, -35705.780773782942561 ], [ 355194.924391091684811, -35841.608862314358703 ], [ 354883.970010124729015, -35943.481057463301113 ], [ 354692.614018503634725, -36011.393962048328831 ], [ 354210.805515472078696, -36174.388393716908467 ], [ 353889.599512718152255, -36283.051778759276203 ], [ 353783.649968770099804, -36167.655421161769482 ], [ 353609.371122838638257, -36171.07267934839183 ], [ 353609.380032959510572, -36238.961115991813131 ], [ 353602.553136248025112, -36296.667186494771158 ] ] ] } }
]
}
